{
"type": "FeatureCollection",
"name": "OLS_Approach_RWY03",
"crs": { "type": "name", "properties": { "name": "urn:ogc:def:crs:OGC:1.3:CRS84" } },
"features": [
{ "type": "Feature", "properties": { "OBJECTID": 8, "SURFACE_TYPE": "APPROACH", "RUNWAY": "03", "START_DIST_M": 60.0, "INNER_WIDTH_M": 280.0, "DIVERGENCE": 15.0, "SEC1_LEN_M": 3000.0, "SEC1_SLOPE": 2.0, "SEC2_LEN_M": 3600.0, "SEC2_SLOPE": 2.5, "SEC3_LEN_M": 8400.0, "SEC3_SLOPE": 0.0, "TOTAL_LEN_M": 15000.0, "START_ELEV": null, "END_ELEV": null, "Shape_Length": 0.25251533215495864, "Shape_Area": 0.0029825514909408435 }, "geometry": { "type": "MultiPolygon", "coordinates": [ [ [ [ 46.699067233000051, 39.047107790000041, 0.0 ], [ 46.703894153000078, 39.044154930000047, 0.0 ], [ 46.664697354000054, 38.972608305000051, 0.0 ], [ 46.621290035000072, 38.99918281600003, 0.0 ], [ 46.683352361000061, 39.056719308000027, 0.0 ], [ 46.68816008400006, 39.053779141000064, 0.0 ], [ 46.684661553000069, 39.049323412000035, 0.0 ], [ 46.68467417800008, 39.049315690000071, 0.0 ], [ 46.690125135000073, 39.045982107000043, 0.0 ], [ 46.690127890000042, 39.045980422000071, 0.0 ], [ 46.695568045000073, 39.042652091000036, 0.0 ], [ 46.699067233000051, 39.047107790000041, 0.0 ] ] ] ] } },
{ "type": "Feature", "properties": { "OBJECTID": 10, "SURFACE_TYPE": "APPROACH", "RUNWAY": "03", "START_DIST_M": 60.0, "INNER_WIDTH_M": 280.0, "DIVERGENCE": 15.0, "SEC1_LEN_M": 3000.0, "SEC1_SLOPE": 2.0, "SEC2_LEN_M": 3600.0, "SEC2_SLOPE": 2.5, "SEC3_LEN_M": 8400.0, "SEC3_SLOPE": 0.0, "TOTAL_LEN_M": 15000.0, "START_ELEV": null, "END_ELEV": null, "Shape_Length": 0.21510703356249422, "Shape_Area": 0.0002319718635524379 }, "geometry": { "type": "MultiPolygon", "coordinates": [ [ [ [ 46.716977068000062, 39.068046152000079, 0.0 ], [ 46.703894153000078, 39.044154930000047, 0.0 ], [ 46.699067233000051, 39.047107790000041, 0.0 ], [ 46.703643863000082, 39.052935450000064, 0.0 ], [ 46.713183905000051, 39.065083281000057, 0.0 ], [ 46.71523957800008, 39.068606377000037, 0.0 ], [ 46.715240433000076, 39.06860609000006, 0.0 ], [ 46.715261977000068, 39.068598828000063, 0.0 ], [ 46.715716927000074, 39.068445475000033, 0.0 ], [ 46.716319493000071, 39.068250184000078, 0.0 ], [ 46.716925531000072, 39.068061541000077, 0.0 ], [ 46.716977068000062, 39.068046152000079, 0.0 ] ] ], [ [ [ 46.691894633000061, 39.058535462000066, 0.0 ], [ 46.68816008400006, 39.053779141000064, 0.0 ], [ 46.683352361000061, 39.056719308000027, 0.0 ], [ 46.702871371000072, 39.074814103000051, 0.0 ], [ 46.703082128000062, 39.074666292000074, 0.0 ], [ 46.703573393000056, 39.074331405000066, 0.0 ], [ 46.704070668000043, 39.074001955000028, 0.0 ], [ 46.70437534000007, 39.073805810000067, 0.0 ], [ 46.702273992000073, 39.071754612000063, 0.0 ], [ 46.691894633000061, 39.058535462000066, 0.0 ] ] ], [ [ [ 46.73388977500008, 39.09893025100007, 0.0 ], [ 46.724241731000063, 39.081311608000078, 0.0 ], [ 46.723055388000034, 39.081997752000063, 0.0 ], [ 46.733143908000045, 39.099274532000038, 0.0 ], [ 46.733007318000034, 39.099358019000078, 0.0 ], [ 46.734013471000026, 39.100789786000064, 0.0 ], [ 46.734683906000043, 39.10038, 0.0 ], [ 46.73388977500008, 39.09893025100007, 0.0 ] ] ], [ [ [ 46.732833059000029, 39.101511262000031, 0.0 ], [ 46.731643095000038, 39.100191858000073, 0.0 ], [ 46.731506697000043, 39.100275227000054, 0.0 ], [ 46.716597036000053, 39.085732644000075, 0.0 ], [ 46.715400367000029, 39.086424606000037, 0.0 ], [ 46.715399922000074, 39.086425729000041, 0.0 ], [ 46.73093362000003, 39.100821660000065, 0.0 ], [ 46.732137083000055, 39.101936636000062, 0.0 ], [ 46.732833059000029, 39.101511262000031, 0.0 ] ] ] ] } }
]
}
