{
"type": "FeatureCollection",
"name": "Runway_line",
"crs": { "type": "name", "properties": { "name": "urn:ogc:def:crs:OGC:1.3:CRS84" } },
"features": [
{ "type": "Feature", "properties": { "OBJECTID": 1, "FID_Runway": 2, "direction": null, "Shape_Length": 0.059620702873138989 }, "geometry": { "type": "MultiLineString", "coordinates": [ [ [ 46.733550440000045, 39.10172534000003, 0.0 ], [ 46.751672589000066, 39.124772560000054, 0.0 ], [ 46.752116300000068, 39.124560770000073, 0.0 ], [ 46.733994, 39.10151355000005, 0.0 ], [ 46.733550440000045, 39.10172534000003, 0.0 ] ] ] } },
{ "type": "Feature", "properties": { "OBJECTID": 2, "FID_Runway": null, "direction": 210.39085083923089, "Shape_Length": 0.029318754896492313 }, "geometry": { "type": "MultiLineString", "coordinates": [ [ [ 46.751894444000072, 39.124666665000063, 0.0 ], [ 46.733772219000059, 39.10161944500004, 0.0 ] ] ] } },
{ "type": "Feature", "properties": { "OBJECTID": 3, "FID_Runway": null, "direction": 210.39071675578953, "Shape_Length": 0.082027087870318066 }, "geometry": { "type": "MultiLineString", "coordinates": [ [ [ 46.693624167000053, 39.050437575000046, 0.0 ], [ 46.642997751000053, 38.985897594000051, 0.0 ] ] ] } },
{ "type": "Feature", "properties": { "OBJECTID": 4, "FID_Runway": null, "direction": 210.39071675578953, "Shape_Length": 0.00058606015213338533 }, "geometry": { "type": "MultiLineString", "coordinates": [ [ [ 46.733772219000059, 39.10161944500004, 0.0 ], [ 46.733410508000077, 39.101158325000029, 0.0 ] ] ] } },
{ "type": "Feature", "properties": { "OBJECTID": 5, "FID_Runway": null, "direction": 210.39071675578953, "Shape_Length": 0.029303100040125124 }, "geometry": { "type": "MultiLineString", "coordinates": [ [ [ 46.733410508000077, 39.101158325000029, 0.0 ], [ 46.715324886000076, 39.078102264000051, 0.0 ] ] ] } },
{ "type": "Feature", "properties": { "OBJECTID": 6, "FID_Runway": null, "direction": 210.39071675578953, "Shape_Length": 0.035160435472061102 }, "geometry": { "type": "MultiLineString", "coordinates": [ [ [ 46.715324886000076, 39.078102264000051, 0.0 ], [ 46.693624167000053, 39.050437575000046, 0.0 ] ] ] } },
{ "type": "Feature", "properties": { "OBJECTID": 7, "FID_Runway": null, "direction": null, "Shape_Length": 0.0023443466486446681 }, "geometry": { "type": "MultiLineString", "coordinates": [ [ [ 46.733772219000059, 39.10161944500004, 0.0 ], [ 46.732325309000032, 39.099774882000077, 0.0 ] ] ] } },
{ "type": "Feature", "properties": { "OBJECTID": 8, "FID_Runway": null, "direction": null, "Shape_Length": 0.0062879070374617548 }, "geometry": { "type": "MultiLineString", "coordinates": [ [ [ 46.715324886000076, 39.078102264000051, 0.0 ], [ 46.72068941100008, 39.074822074000053, 0.0 ] ] ] } },
{ "type": "Feature", "properties": { "OBJECTID": 9, "FID_Runway": null, "direction": null, "Shape_Length": 0.0062882011755707335 }, "geometry": { "type": "MultiLineString", "coordinates": [ [ [ 46.715324886000076, 39.078102264000051, 0.0 ], [ 46.709959864000041, 39.081382205000068, 0.0 ] ] ] } },
{ "type": "Feature", "properties": { "OBJECTID": 10, "FID_Runway": null, "direction": null, "Shape_Length": 0.012039279074626305 }, "geometry": { "type": "MultiLineString", "coordinates": [ [ [ 46.693624167000053, 39.050437575000046, 0.0 ], [ 46.703894153000078, 39.044154930000047, 0.0 ] ] ] } },
{ "type": "Feature", "properties": { "OBJECTID": 11, "FID_Runway": null, "direction": null, "Shape_Length": 0.012040355808052494 }, "geometry": { "type": "MultiLineString", "coordinates": [ [ [ 46.693624167000053, 39.050437575000046, 0.0 ], [ 46.683352361000061, 39.056719308000027, 0.0 ] ] ] } },
{ "type": "Feature", "properties": { "OBJECTID": 12, "FID_Runway": null, "direction": null, "Shape_Length": 0.00058638896366642354 }, "geometry": { "type": "MultiLineString", "coordinates": [ [ [ 46.751894444000072, 39.124666665000063, 0.0 ], [ 46.752256989000045, 39.12512754800008, 0.0 ] ] ] } },
{ "type": "Feature", "properties": { "OBJECTID": 13, "FID_Runway": null, "direction": null, "Shape_Length": 0.02932193600439563 }, "geometry": { "type": "MultiLineString", "coordinates": [ [ [ 46.752256989000045, 39.12512754800008, 0.0 ], [ 46.770390315000043, 39.148170083000025, 0.0 ] ] ] } },
{ "type": "Feature", "properties": { "OBJECTID": 14, "FID_Runway": null, "direction": null, "Shape_Length": 0.035192830159288771 }, "geometry": { "type": "MultiLineString", "coordinates": [ [ [ 46.770390315000043, 39.148170083000025, 0.0 ], [ 46.792166165000026, 39.175816921000035, 0.0 ] ] ] } },
{ "type": "Feature", "properties": { "OBJECTID": 15, "FID_Runway": null, "direction": null, "Shape_Length": 0.082144305001861123 }, "geometry": { "type": "MultiLineString", "coordinates": [ [ [ 46.792166165000026, 39.175816921000035, 0.0 ], [ 46.843043931000068, 39.24030831400006, 0.0 ] ] ] } },
{ "type": "Feature", "properties": { "OBJECTID": 18, "FID_Runway": null, "direction": null, "Shape_Length": 0.0023453635967018776 }, "geometry": { "type": "MultiLineString", "coordinates": [ [ [ 46.753344777000052, 39.126509832000067, 0.0 ], [ 46.751894444000072, 39.124666665000063, 0.0 ] ] ] } },
{ "type": "Feature", "properties": { "OBJECTID": 19, "FID_Runway": null, "direction": null, "Shape_Length": 0.0009593295206131474 }, "geometry": { "type": "MultiLineString", "coordinates": [ [ [ 46.753344777000052, 39.126509832000067, 0.0 ], [ 46.754162680000036, 39.126008486000046, 0.0 ] ] ] } },
{ "type": "Feature", "properties": { "OBJECTID": 20, "FID_Runway": null, "direction": null, "Shape_Length": 0.00095933609338931004 }, "geometry": { "type": "MultiLineString", "coordinates": [ [ [ 46.753344777000052, 39.126509832000067, 0.0 ], [ 46.752526862000082, 39.127011171000049, 0.0 ] ] ] } },
{ "type": "Feature", "properties": { "OBJECTID": 22, "FID_Runway": null, "direction": null, "Shape_Length": 0.039875269538784036 }, "geometry": { "type": "MultiLineString", "coordinates": [ [ [ 46.778008656000054, 39.157842406000043, 0.0 ], [ 46.753344777000052, 39.126509832000067, 0.0 ] ] ] } },
{ "type": "Feature", "properties": { "OBJECTID": 23, "FID_Runway": null, "direction": null, "Shape_Length": 0.0063968330456637907 }, "geometry": { "type": "MultiLineString", "coordinates": [ [ [ 46.778008656000054, 39.157842406000043, 0.0 ], [ 46.783461704000047, 39.154498196000077, 0.0 ] ] ] } },
{ "type": "Feature", "properties": { "OBJECTID": 24, "FID_Runway": null, "direction": null, "Shape_Length": 0.0063971377241150238 }, "geometry": { "type": "MultiLineString", "coordinates": [ [ [ 46.778008656000054, 39.157842406000043, 0.0 ], [ 46.772555093000051, 39.161186359000055, 0.0 ] ] ] } },
{ "type": "Feature", "properties": { "OBJECTID": 26, "FID_Runway": null, "direction": null, "Shape_Length": 0.10676983928452083 }, "geometry": { "type": "MultiLineString", "coordinates": [ [ [ 46.844124512000064, 39.241678509000053, 0.0 ], [ 46.778008656000054, 39.157842406000043, 0.0 ] ] ] } },
{ "type": "Feature", "properties": { "OBJECTID": 27, "FID_Runway": null, "direction": null, "Shape_Length": 0.0064012044678060072 }, "geometry": { "type": "MultiLineString", "coordinates": [ [ [ 46.844124512000064, 39.241678509000053, 0.0 ], [ 46.84958068800006, 39.238331038000069, 0.0 ] ] ] } },
{ "type": "Feature", "properties": { "OBJECTID": 28, "FID_Runway": null, "direction": null, "Shape_Length": 0.0064015138438405107 }, "geometry": { "type": "MultiLineString", "coordinates": [ [ [ 46.844124512000064, 39.241678509000053, 0.0 ], [ 46.838667816000054, 39.245025724000072, 0.0 ] ] ] } },
{ "type": "Feature", "properties": { "OBJECTID": 30, "FID_Runway": null, "direction": null, "Shape_Length": 0.0096030005281591245 }, "geometry": { "type": "MultiLineString", "coordinates": [ [ [ 46.736948009000059, 39.108443906000048, 0.0 ], [ 46.731012831000044, 39.100894649000054, 0.0 ] ] ] } },
{ "type": "Feature", "properties": { "OBJECTID": 32, "FID_Runway": null, "direction": null, "Shape_Length": 0.023574090545602226 }, "geometry": { "type": "MultiLineString", "coordinates": [ [ [ 46.736948009000059, 39.108443906000048, 0.0 ], [ 46.75152219000006, 39.126973099000054, 0.0 ] ] ] } },
{ "type": "Feature", "properties": { "OBJECTID": 35, "FID_Runway": null, "direction": null, "Shape_Length": 0.0095455212432366352 }, "geometry": { "type": "MultiLineString", "coordinates": [ [ [ 46.739884589000042, 39.106607372000042, 0.0 ], [ 46.733984867000061, 39.099103356000057, 0.0 ] ] ] } },
{ "type": "Feature", "properties": { "OBJECTID": 37, "FID_Runway": null, "direction": null, "Shape_Length": 0.024015047056831947 }, "geometry": { "type": "MultiLineString", "coordinates": [ [ [ 46.739884589000042, 39.106607372000042, 0.0 ], [ 46.754731752000055, 39.125482865000038, 0.0 ] ] ] } },
{ "type": "Feature", "properties": { "OBJECTID": 45, "FID_Runway": null, "direction": null, "Shape_Length": 0.039923709617030068 }, "geometry": { "type": "MultiLineString", "coordinates": [ [ [ 46.740073530000075, 39.117811508000045, 0.0 ], [ 46.715400367000029, 39.086424606000037, 0.0 ] ] ] } },
{ "type": "Feature", "properties": { "OBJECTID": 46, "FID_Runway": null, "direction": null, "Shape_Length": 0.039789584183733996 }, "geometry": { "type": "MultiLineString", "coordinates": [ [ [ 46.748834135000038, 39.112591560000055, 0.0 ], [ 46.724242557000025, 39.081311130000074, 0.0 ] ] ] } },
{ "type": "Feature", "properties": { "OBJECTID": 49, "FID_Runway": null, "direction": null, "Shape_Length": 0.034929942237792881 }, "geometry": { "type": "MultiLineString", "coordinates": [ [ [ 46.748834135000038, 39.112591560000055, 0.0 ], [ 46.770436323000069, 39.140040537000061, 0.0 ] ] ] } },
{ "type": "Feature", "properties": { "OBJECTID": 50, "FID_Runway": null, "direction": null, "Shape_Length": 0.033888513998333612 }, "geometry": { "type": "MultiLineString", "coordinates": [ [ [ 46.740073530000075, 39.117811508000045, 0.0 ], [ 46.76103039700007, 39.144443089000049, 0.0 ] ] ] } },
{ "type": "Feature", "properties": { "OBJECTID": 51, "FID_Runway": null, "direction": null, "Shape_Length": 0.068418694160990057 }, "geometry": { "type": "MultiLineString", "coordinates": [ [ [ 46.753344777000052, 39.126509832000067, 0.0 ], [ 46.795671765000066, 39.180264309000052, 0.0 ] ] ] } },
{ "type": "Feature", "properties": { "OBJECTID": 52, "FID_Runway": null, "direction": null, "Shape_Length": 0.016377002222068417 }, "geometry": { "type": "MultiLineString", "coordinates": [ [ [ 46.795671765000066, 39.180264309000052, 0.0 ], [ 46.809627105000061, 39.171693738000045, 0.0 ] ] ] } },
{ "type": "Feature", "properties": { "OBJECTID": 53, "FID_Runway": null, "direction": null, "Shape_Length": 0.017335608998081193 }, "geometry": { "type": "MultiLineString", "coordinates": [ [ [ 46.795671765000066, 39.180264309000052, 0.0 ], [ 46.780897739000068, 39.189333570000031, 0.0 ] ] ] } },
{ "type": "Feature", "properties": { "OBJECTID": 54, "FID_Runway": null, "direction": null, "Shape_Length": 0.068370441916306368 }, "geometry": { "type": "MultiLineString", "coordinates": [ [ [ 46.732325309000032, 39.099774882000077, 0.0 ], [ 46.690125135000073, 39.045982107000043, 0.0 ] ] ] } },
{ "type": "Feature", "properties": { "OBJECTID": 55, "FID_Runway": null, "direction": null, "Shape_Length": 0.014625630704659446 }, "geometry": { "type": "MultiLineString", "coordinates": [ [ [ 46.690125135000073, 39.045982107000043, 0.0 ], [ 46.702601049000066, 39.038349241000049, 0.0 ] ] ] } },
{ "type": "Feature", "properties": { "OBJECTID": 56, "FID_Runway": null, "direction": null, "Shape_Length": 0.01580190934120072 }, "geometry": { "type": "MultiLineString", "coordinates": [ [ [ 46.690125135000073, 39.045982107000043, 0.0 ], [ 46.676644341000042, 39.054226410000069, 0.0 ] ] ] } }
]
}
