{
"type": "FeatureCollection",
"name": "Takeoff_Climb_RWY21",
"crs": { "type": "name", "properties": { "name": "urn:ogc:def:crs:OGC:1.3:CRS84" } },
"features": [
{ "type": "Feature", "properties": { "OBJECTID": 5, "SURFACE_TYPE": "TAKEOFF_CLIMB", "RUNWAY": "21", "START_DIST_M": 240.0, "INNER_WIDTH_M": 180.0, "DIVERGENCE": 12.5, "FINAL_WIDTH_M": 1200.0, "DIV_LEN_M": 4080.0, "CONST_LEN_M": 10920.0, "TOTAL_LEN_M": 15000.0, "SLOPE_PCT": 2.0, "START_ELEV": null, "END_ELEV": null, "Shape_Length": 0.16797137219997127, "Shape_Area": 0.00051722155284439852 }, "geometry": { "type": "MultiPolygon", "coordinates": [ [ [ [ 46.769189555000025, 39.140624175000028, 0.0 ], [ 46.754162680000036, 39.126008486000046, 0.0 ], [ 46.752526862000082, 39.127011171000049, 0.0 ], [ 46.762372017000075, 39.143815207000046, 0.0 ], [ 46.769189555000025, 39.140624175000028, 0.0 ] ] ], [ [ [ 46.801123743000062, 39.176916017000053, 0.0 ], [ 46.783461704000047, 39.154498196000077, 0.0 ], [ 46.781355782000048, 39.152451484000039, 0.0 ], [ 46.78110582100004, 39.152612268000041, 0.0 ], [ 46.780596098000046, 39.152930814000058, 0.0 ], [ 46.78008064200003, 39.153243720000035, 0.0 ], [ 46.779559559000063, 39.153550925000047, 0.0 ], [ 46.779032950000044, 39.153852370000038, 0.0 ], [ 46.778500922000035, 39.15414799000007, 0.0 ], [ 46.777963580000062, 39.154437728000062, 0.0 ], [ 46.777421033000053, 39.15472152500007, 0.0 ], [ 46.776873386000034, 39.154999327000041, 0.0 ], [ 46.776320752000061, 39.155271077000066, 0.0 ], [ 46.775763238000081, 39.155536721000033, 0.0 ], [ 46.775200958000028, 39.155796207000037, 0.0 ], [ 46.774634023000033, 39.156049480000036, 0.0 ], [ 46.774062547000028, 39.156296492000024, 0.0 ], [ 46.773486643000069, 39.156537193000077, 0.0 ], [ 46.772906425000031, 39.156771535000075, 0.0 ], [ 46.772322013000064, 39.156999472000052, 0.0 ], [ 46.771733519000065, 39.15722095700005, 0.0 ], [ 46.771141063000073, 39.157435946000078, 0.0 ], [ 46.77084291400007, 39.157540171000051, 0.0 ], [ 46.77049011500003, 39.157662782000045, 0.0 ], [ 46.77048891700008, 39.157662495000068, 0.0 ], [ 46.772555093000051, 39.161186359000055, 0.0 ], [ 46.790219612000044, 39.183611197000062, 0.0 ], [ 46.790232351000043, 39.183603376000065, 0.0 ], [ 46.795671765000066, 39.180264309000052, 0.0 ], [ 46.795673772000043, 39.180263076000074, 0.0 ], [ 46.795684921000031, 39.180256230000055, 0.0 ], [ 46.801123743000062, 39.176916017000053, 0.0 ] ] ], [ [ [ 46.84958068800006, 39.238331038000069, 0.0 ], [ 46.848496687000079, 39.236958596000079, 0.0 ], [ 46.837584774000049, 39.243652825000026, 0.0 ], [ 46.837584476000075, 39.243653884000025, 0.0 ], [ 46.838667816000054, 39.245025724000072, 0.0 ], [ 46.84958068800006, 39.238331038000069, 0.0 ] ] ] ] } }
]
}
