{
"type": "FeatureCollection",
"name": "Transition_surface",
"crs": { "type": "name", "properties": { "name": "urn:ogc:def:crs:OGC:1.3:CRS84" } },
"features": [
{ "type": "Feature", "properties": { "OBJECTID": 1, "SURFACE_TYPE": "TRANSITIONAL", "RUNWAY": "03/21", "SLOPE_PCT": 14.3, "TARGET_SURF": "INNER_HORIZONTAL", "TARGET_H_M": null, "START_ELEV": null, "END_ELEV": null, "Shape_Length": 0.29823050504412585, "Shape_Area": 0.00036667580948521389 }, "geometry": { "type": "MultiPolygon", "coordinates": [ [ [ [ 46.748834135000038, 39.112591560000055, 0.0 ], [ 46.724242557000025, 39.081311130000074, 0.0 ], [ 46.733046047000073, 39.097388805000037, 0.0 ], [ 46.733984867000061, 39.099103356000057, 0.0 ], [ 46.734683906000043, 39.10038, 0.0 ], [ 46.739884589000042, 39.106607372000042, 0.0 ], [ 46.753637603000072, 39.124468622000052, 0.0 ], [ 46.754731752000055, 39.125482865000038, 0.0 ], [ 46.770436323000069, 39.140040537000061, 0.0 ], [ 46.748834135000038, 39.112591560000055, 0.0 ] ] ], [ [ [ 46.726937625000062, 39.097117640000079, 0.0 ], [ 46.715400367000029, 39.086424606000037, 0.0 ], [ 46.740073530000075, 39.117811508000045, 0.0 ], [ 46.76103039700007, 39.144443089000049, 0.0 ], [ 46.75152219000006, 39.126973099000054, 0.0 ], [ 46.750876350000055, 39.12578645800005, 0.0 ], [ 46.736948009000059, 39.108443906000048, 0.0 ], [ 46.732137083000055, 39.101936636000062, 0.0 ], [ 46.731012831000044, 39.100894649000054, 0.0 ], [ 46.726937625000062, 39.097117640000079, 0.0 ] ] ] ] } }
]
}
