{
"type": "FeatureCollection",
"name": "Conical_Surface",
"crs": { "type": "name", "properties": { "name": "urn:ogc:def:crs:OGC:1.3:CRS84" } },
"features": [
{ "type": "Feature", "properties": { "OBJECTID": 4, "SURFACE_TYPE": "CONICAL", "RUNWAY": "COMMON", "SLOPE_PCT": 5.0, "HEIGHT_M": 100.0, "INNER_RAD_M": 4000.0, "OUTER_RAD_M": 6000.0, "LENGTH_M": 2000.0, "START_ELEV": null, "END_ELEV": null, "Shape_Length": 0.7684112994993163, "Shape_Area": 0.0070694051578756439 }, "geometry": { "type": "MultiPolygon", "coordinates": [ [ [ [ 46.784649242000057, 39.064886912000077 ], [ 46.784101922000048, 39.064431850000062 ], [ 46.78354790800006, 39.063981741000077 ], [ 46.782987276000028, 39.063536641000042 ], [ 46.782420098000046, 39.063096615000063 ], [ 46.781846453000071, 39.062661717000026 ], [ 46.781266414000072, 39.062232006000045 ], [ 46.780680059000076, 39.061807540000075 ], [ 46.780087466000055, 39.061388374000046 ], [ 46.77948871600006, 39.060974566000027 ], [ 46.778883887000063, 39.060566168000037 ], [ 46.778273059000071, 39.060163236000051 ], [ 46.777656315000058, 39.059765823000077 ], [ 46.777033735000032, 39.059373985000036 ], [ 46.776405405000048, 39.058987768000065 ], [ 46.775771404000068, 39.058607229000074 ], [ 46.77513182000007, 39.058232414000031 ], [ 46.774486738000064, 39.057863378000036 ], [ 46.773836242000073, 39.057500166000068 ], [ 46.773180421000063, 39.057142826000074 ], [ 46.772519359000057, 39.056791409000027 ], [ 46.771853146000069, 39.05644595800004 ], [ 46.771181871000067, 39.05610652200005 ], [ 46.770505623000076, 39.055773145000046 ], [ 46.769824491000065, 39.055445871000074 ], [ 46.769138565000048, 39.055124744000068 ], [ 46.768447940000044, 39.054809804000058 ], [ 46.767752704000031, 39.05450109800006 ], [ 46.767052951000039, 39.054198663000079 ], [ 46.766348773000061, 39.053902540000024 ], [ 46.765640266000048, 39.05361276900004 ], [ 46.76492752200005, 39.053329390000044 ], [ 46.764210637000076, 39.05305243600003 ], [ 46.76348970600003, 39.052781949000064 ], [ 46.762764824000044, 39.052517962000024 ], [ 46.762036088000059, 39.052260512000032 ], [ 46.761303596000062, 39.052009631000033 ], [ 46.76056744300007, 39.051765352000075 ], [ 46.75982773100003, 39.051527712000052 ], [ 46.759084553000037, 39.05129673700003 ], [ 46.758338012000081, 39.051072461000047 ], [ 46.757588205000047, 39.05085491300008 ], [ 46.756835232000071, 39.050644122000051 ], [ 46.756079194000051, 39.050440117000051 ], [ 46.755320192000056, 39.050242924000031 ], [ 46.754558324000072, 39.050052568000069 ], [ 46.75379369400008, 39.04986907600005 ], [ 46.753026403000035, 39.049692472000061 ], [ 46.752256553000052, 39.049522780000075 ], [ 46.751484245000029, 39.049360021000041 ], [ 46.750709584000049, 39.049204220000036 ], [ 46.749932672000057, 39.04905539300006 ], [ 46.749153611000054, 39.048913563000042 ], [ 46.748372506000067, 39.048778748000075 ], [ 46.747589460000029, 39.048650965000036 ], [ 46.746804578000081, 39.048530232000076 ], [ 46.746017964000032, 39.048416567000061 ], [ 46.745229722000033, 39.048309981000045 ], [ 46.744439957000054, 39.048210491000077 ], [ 46.743648774000064, 39.048118110000075 ], [ 46.742856277000044, 39.048032850000027 ], [ 46.742062575000034, 39.047954720000064 ], [ 46.741267769000046, 39.047883735000028 ], [ 46.740471967000076, 39.047819900000036 ], [ 46.739675275000081, 39.047763226000029 ], [ 46.738877797000043, 39.047713721000036 ], [ 46.73807964100007, 39.047671390000062 ], [ 46.737280912000074, 39.047636239000042 ], [ 46.73648171800005, 39.047608272000048 ], [ 46.735682162000046, 39.047587495000073 ], [ 46.734882352000056, 39.047573908000061 ], [ 46.73408239400004, 39.047567516000072 ], [ 46.73328239500006, 39.047568317000071 ], [ 46.732482460000028, 39.047576311000057 ], [ 46.731682697000053, 39.047591499000077 ], [ 46.730883212000037, 39.04761387700006 ], [ 46.730084109000074, 39.047643443000027 ], [ 46.729285497000035, 39.047680194000066 ], [ 46.728487480000069, 39.04772412300008 ], [ 46.72769016500007, 39.047775225000066 ], [ 46.726893659000041, 39.047833495000077 ], [ 46.726098066000077, 39.047898922000059 ], [ 46.725303493000069, 39.047971500000074 ], [ 46.724510045000045, 39.048051219000058 ], [ 46.72371782700003, 39.048138066000035 ], [ 46.72292694500004, 39.048232031000055 ], [ 46.722137505000035, 39.048333103000061 ], [ 46.721349609000072, 39.04844126900008 ], [ 46.720563366000079, 39.048556510000026 ], [ 46.719778876000078, 39.048678815000073 ], [ 46.718996247000064, 39.048808166000072 ], [ 46.718215581000038, 39.048944547000076 ], [ 46.717436982000038, 39.049087938000071 ], [ 46.716660554000043, 39.049238322000065 ], [ 46.715886399000055, 39.049395679000042 ], [ 46.715114621000055, 39.049559986000077 ], [ 46.714345322000042, 39.049731222000048 ], [ 46.713578606000056, 39.049909365000076 ], [ 46.71281457300006, 39.050094390000027 ], [ 46.712053325000056, 39.05028627300004 ], [ 46.711294964000047, 39.050484992000065 ], [ 46.710539589000064, 39.050690515000042 ], [ 46.709787302000052, 39.050902818000054 ], [ 46.709038203000034, 39.051121871000078 ], [ 46.708292391000043, 39.051347646000067 ], [ 46.707921184000043, 39.05146387700006 ], [ 46.707900162000044, 39.051470459000029 ], [ 46.716977068000062, 39.068046152000079 ], [ 46.717534924000063, 39.067879582000046 ], [ 46.718147545000079, 39.067704344000049 ], [ 46.71876327800004, 39.067535862000057 ], [ 46.719381996000038, 39.06737417100004 ], [ 46.720003578000046, 39.067219300000033 ], [ 46.720627900000068, 39.06707128100004 ], [ 46.72125483700006, 39.066930146000061 ], [ 46.721884265000028, 39.066795920000061 ], [ 46.722516059000043, 39.066668630000038 ], [ 46.723150091000036, 39.066548304000037 ], [ 46.723786238000059, 39.066434963000063 ], [ 46.724424372000044, 39.066328629000054 ], [ 46.725064366000026, 39.066229326000041 ], [ 46.725706092000053, 39.06613707300005 ], [ 46.726349423000045, 39.066051888000061 ], [ 46.726994231000049, 39.065973788000065 ], [ 46.727640388000054, 39.065902786000038 ], [ 46.728287764000072, 39.065838902000053 ], [ 46.728936231000034, 39.065782142000046 ], [ 46.729585662000034, 39.065732523000065 ], [ 46.730235924000056, 39.065690051000047 ], [ 46.730886891000068, 39.065654735000066 ], [ 46.731538430000057, 39.065626583000039 ], [ 46.732190415000048, 39.065605603000051 ], [ 46.732842713000025, 39.065591793000067 ], [ 46.733495198000071, 39.065585162000048 ], [ 46.734147736000068, 39.065585706000036 ], [ 46.734800199000063, 39.065593429000046 ], [ 46.735452459000044, 39.065608329000042 ], [ 46.736104383000054, 39.065630401000078 ], [ 46.736755843000026, 39.065659641000025 ], [ 46.737406709000027, 39.065696044000049 ], [ 46.738056851000067, 39.065739604000044 ], [ 46.738706142000069, 39.065790309000079 ], [ 46.739354450000064, 39.065848152000058 ], [ 46.740001646000053, 39.065913120000062 ], [ 46.74064760300007, 39.065985200000057 ], [ 46.74129219200006, 39.066064378000078 ], [ 46.741935284000078, 39.066150637000078 ], [ 46.742576752000048, 39.066243963000034 ], [ 46.743216468000071, 39.066344334000064 ], [ 46.743854304000081, 39.066451733000065 ], [ 46.744490134000046, 39.066566135000073 ], [ 46.745123830000068, 39.066687521000063 ], [ 46.74575526700005, 39.06681586600007 ], [ 46.746384320000061, 39.066951140000072 ], [ 46.747010863000071, 39.067093324000041 ], [ 46.747634771000037, 39.067242382000074 ], [ 46.748255921000066, 39.067398290000028 ], [ 46.748874188000059, 39.067561013000045 ], [ 46.749489449000066, 39.067730522000033 ], [ 46.75010158300006, 39.067906780000044 ], [ 46.750710467000033, 39.068089756000063 ], [ 46.751315980000072, 39.06827940800008 ], [ 46.751918, 39.068475703000047 ], [ 46.752516410000055, 39.068678601000045 ], [ 46.753111090000061, 39.068888060000063 ], [ 46.753701920000026, 39.069104039000024 ], [ 46.754288784000039, 39.069326495000041 ], [ 46.75487156500003, 39.069555384000068 ], [ 46.755450148000079, 39.069790662000059 ], [ 46.75602441500007, 39.070032279000031 ], [ 46.75659425300006, 39.070280188000027 ], [ 46.75715954900005, 39.070534341000041 ], [ 46.757720191000033, 39.070794686000056 ], [ 46.758276065000075, 39.071061172000043 ], [ 46.758827063000069, 39.071333745000061 ], [ 46.759373074000052, 39.071612354000024 ], [ 46.75991399000003, 39.071896938000066 ], [ 46.760449702000074, 39.072187446000044 ], [ 46.760980104000055, 39.072483815000055 ], [ 46.761505090000071, 39.072785989000067 ], [ 46.762024557000075, 39.073093908000033 ], [ 46.76253839900005, 39.073407511000028 ], [ 46.763046516000031, 39.073726733000058 ], [ 46.763548806000074, 39.074051513000029 ], [ 46.764045168000052, 39.074381784000025 ], [ 46.764535504000037, 39.074717484000075 ], [ 46.76501971700003, 39.075058542000079 ], [ 46.765497708000055, 39.075404893000041 ], [ 46.765969385000062, 39.07575646600003 ], [ 46.766434651000054, 39.076113192000037 ], [ 46.766893417000063, 39.076475001000063 ], [ 46.767345588000069, 39.076841821000073 ], [ 46.767791074000058, 39.077213577000066 ], [ 46.768229789000031, 39.077590196000074 ], [ 46.76866164300003, 39.077971603000037 ], [ 46.769086553000079, 39.078357721000032 ], [ 46.76950443000004, 39.078748475000054 ], [ 46.769915194000077, 39.079143785000042 ], [ 46.770318762000045, 39.079543576000049 ], [ 46.77071505300006, 39.079947764000053 ], [ 46.77110398800005, 39.080356272000074 ], [ 46.771485491000078, 39.080769018000069 ], [ 46.77185948500005, 39.081185916000038 ], [ 46.772225895000076, 39.081606890000046 ], [ 46.772584648000077, 39.082031850000078 ], [ 46.772935673000063, 39.082460714000035 ], [ 46.773278899000047, 39.082893397000078 ], [ 46.79125489900008, 39.105738895000059 ], [ 46.791594176000046, 39.106173759000058 ], [ 46.791925542000058, 39.106612312000038 ], [ 46.792248929000039, 39.107054467000069 ], [ 46.792564274000028, 39.10750013300003 ], [ 46.79287151300008, 39.107949225000027 ], [ 46.793170585000041, 39.108401652000055 ], [ 46.793461429000047, 39.108857323000052 ], [ 46.793743989000063, 39.109316147000072 ], [ 46.794018208000068, 39.109778035000033 ], [ 46.794284029000039, 39.110242893000077 ], [ 46.79454140100006, 39.110710629000039 ], [ 46.794790273000046, 39.11118114900006 ], [ 46.795030593000035, 39.111654359000056 ], [ 46.795262316000048, 39.112130165000053 ], [ 46.795485393000035, 39.112608474000069 ], [ 46.795699780000064, 39.11308918900005 ], [ 46.795905434000076, 39.113572213000054 ], [ 46.796102315000041, 39.114057453000044 ], [ 46.796290382000052, 39.114544809000051 ], [ 46.796469599000034, 39.115034186000059 ], [ 46.796639927000058, 39.115525484000045 ], [ 46.796801335000055, 39.116018607000058 ], [ 46.796953791000078, 39.116513456000064 ], [ 46.797097262000079, 39.117009934000066 ], [ 46.79723172000007, 39.117507940000053 ], [ 46.797357139000042, 39.118007375000047 ], [ 46.797473492000051, 39.118508140000074 ], [ 46.797580757000048, 39.119010136000043 ], [ 46.797678911000048, 39.119513260000076 ], [ 46.79776793700006, 39.120017415000063 ], [ 46.797847815000068, 39.120522498000071 ], [ 46.797918529000071, 39.121028410000065 ], [ 46.797980064000058, 39.121535049000045 ], [ 46.798032410000076, 39.122042314000055 ], [ 46.798075554000036, 39.122550104000027 ], [ 46.798109489000069, 39.123058318000062 ], [ 46.798134205000053, 39.123566856000025 ], [ 46.798149701000057, 39.124075614000049 ], [ 46.798155971000028, 39.124584491000064 ], [ 46.798153014000036, 39.125093387000049 ], [ 46.798140829000033, 39.12560220000006 ], [ 46.79811942200007, 39.126110827000048 ], [ 46.79808879400008, 39.126619168000047 ], [ 46.798048953000034, 39.127127123000037 ], [ 46.797999904000051, 39.127634587000045 ], [ 46.79794165900006, 39.128141462000031 ], [ 46.797874228000069, 39.128647646000047 ], [ 46.797797624000054, 39.129153038000027 ], [ 46.797711864000064, 39.129657535000035 ], [ 46.797616964000042, 39.130161040000075 ], [ 46.797512943000072, 39.130663449000053 ], [ 46.797399820000066, 39.131164666000075 ], [ 46.797277619000056, 39.131664587000046 ], [ 46.797146362000035, 39.132163114000036 ], [ 46.797006078000038, 39.13266014800007 ], [ 46.796856794000064, 39.133155589000069 ], [ 46.796698538000044, 39.133649338000055 ], [ 46.796531344000073, 39.134141298000031 ], [ 46.796355242000061, 39.134631370000079 ], [ 46.796170269000072, 39.135119453000073 ], [ 46.795976461000066, 39.135605455000075 ], [ 46.795773857000029, 39.136089277000053 ], [ 46.795562496000059, 39.136570821000078 ], [ 46.795342423000079, 39.137049992000073 ], [ 46.795113679000053, 39.137526695000076 ], [ 46.794876309000074, 39.138000833000035 ], [ 46.794630362000078, 39.138472313000079 ], [ 46.794375887000058, 39.138941041000066 ], [ 46.794112932000075, 39.139406923000024 ], [ 46.79384155300005, 39.139869866000026 ], [ 46.793561802000056, 39.140329777000034 ], [ 46.793273735000071, 39.140786566000031 ], [ 46.79297740800007, 39.141240140000036 ], [ 46.792672882000033, 39.141690408000045 ], [ 46.792360218000056, 39.142137283000068 ], [ 46.792039475000081, 39.142580674000044 ], [ 46.791710720000026, 39.143020492000062 ], [ 46.791374017000066, 39.143456649000029 ], [ 46.791029434000052, 39.143889060000049 ], [ 46.790677038000069, 39.144317636000039 ], [ 46.790316902000029, 39.144742293000036 ], [ 46.789949094000065, 39.145162947000074 ], [ 46.789573691000044, 39.145579514000076 ], [ 46.789190765000058, 39.145991908000042 ], [ 46.788800394000077, 39.146400051000057 ], [ 46.788402655000027, 39.146803857000066 ], [ 46.787997628000028, 39.147203248000039 ], [ 46.78758539200004, 39.147598143000039 ], [ 46.787166031000027, 39.147988466000072 ], [ 46.786739628000078, 39.14837413500004 ], [ 46.786306269000079, 39.148755077000033 ], [ 46.785866039000041, 39.149131212000043 ], [ 46.785419025000067, 39.149502469000026 ], [ 46.784965318000047, 39.149868770000069 ], [ 46.784505008000053, 39.150230044000068 ], [ 46.784038187000078, 39.150586219000047 ], [ 46.78356494600007, 39.150937224000074 ], [ 46.783085383000071, 39.151282986000069 ], [ 46.782842492000043, 39.151453211000046 ], [ 46.782790744000067, 39.151489476000052 ], [ 46.797688246000064, 39.165285114000028 ], [ 46.797842414000058, 39.165180293000049 ], [ 46.798439702000053, 39.164764634000051 ], [ 46.799030780000066, 39.164343636000069 ], [ 46.79961557200005, 39.163917353000045 ], [ 46.800194001000079, 39.163485842000057 ], [ 46.800765987000034, 39.16304916200005 ], [ 46.801331456000071, 39.162607370000046 ], [ 46.801890333000074, 39.162160526000036 ], [ 46.802442542000051, 39.161708690000069 ], [ 46.802988010000036, 39.161251920000041 ], [ 46.803526666000039, 39.160790277000046 ], [ 46.804058436000048, 39.160323826000081 ], [ 46.804583251000054, 39.159852626000031 ], [ 46.805101041000057, 39.159376742000063 ], [ 46.805611734000081, 39.158896234000053 ], [ 46.806115267000052, 39.158411169000033 ], [ 46.80661157000003, 39.157921612000052 ], [ 46.807100578000075, 39.157427626000072 ], [ 46.807582225000033, 39.156929278000064 ], [ 46.808056448000059, 39.156426635000059 ], [ 46.808523183000034, 39.155919763000043 ], [ 46.808982368000045, 39.15540873100008 ], [ 46.809433944000034, 39.154893605000041 ], [ 46.809877848000042, 39.154374456000028 ], [ 46.810314022000057, 39.153851351000071 ], [ 46.810742409000056, 39.153324362000035 ], [ 46.811162952000075, 39.152793557000052 ], [ 46.811575595000079, 39.15225901000008 ], [ 46.811980281000046, 39.151720787000045 ], [ 46.812376960000051, 39.151178964000053 ], [ 46.812765575000071, 39.150633613000025 ], [ 46.813146079000035, 39.150084804000073 ], [ 46.813518417000068, 39.149532614000066 ], [ 46.81388254400008, 39.148977113000058 ], [ 46.814238408000051, 39.148418377000041 ], [ 46.81458596300007, 39.147856479000041 ], [ 46.814925163000055, 39.147291496000037 ], [ 46.815255964000073, 39.146723501000054 ], [ 46.815578321000032, 39.146152573000052 ], [ 46.815892192000035, 39.145578785000055 ], [ 46.816197534000025, 39.145002214000044 ], [ 46.816494308000074, 39.144422937000058 ], [ 46.816782473000046, 39.143841031000079 ], [ 46.817061993000038, 39.143256574000077 ], [ 46.817332830000055, 39.14266964400008 ], [ 46.817594947000032, 39.142080320000048 ], [ 46.817848311000034, 39.14148867800003 ], [ 46.818092887000034, 39.140894798000033 ], [ 46.818328644000076, 39.140298762000043 ], [ 46.818555550000042, 39.139700645000062 ], [ 46.81877357500008, 39.139100528000029 ], [ 46.818982691000031, 39.138498491000064 ], [ 46.819182869000031, 39.137894617000029 ], [ 46.81937408400006, 39.137288983000076 ], [ 46.819556310000053, 39.136681672000066 ], [ 46.819729523000035, 39.136072763000072 ], [ 46.81989370000008, 39.135462336000046 ], [ 46.820048820000068, 39.134850476000054 ], [ 46.820194861000061, 39.134237262000056 ], [ 46.82033180600007, 39.133622776000038 ], [ 46.820459636000066, 39.133007101000032 ], [ 46.82057833500005, 39.132390318000034 ], [ 46.820687885000041, 39.131772507000051 ], [ 46.820788273000062, 39.13115375600006 ], [ 46.82087948700007, 39.130534142000045 ], [ 46.820961514000032, 39.129913748000035 ], [ 46.821034344000054, 39.129292661000079 ], [ 46.821097966000082, 39.128670960000079 ], [ 46.821152373000075, 39.128048728000067 ], [ 46.821197559000041, 39.127426048000075 ], [ 46.821233517000053, 39.126803004000067 ], [ 46.821260242000051, 39.126179677000039 ], [ 46.821277730000077, 39.125556153000048 ], [ 46.821285981000074, 39.124932512000044 ], [ 46.821284994000052, 39.124308838000047 ], [ 46.82127476900007, 39.123685216000069 ], [ 46.821255306000069, 39.123061727000049 ], [ 46.821226610000053, 39.122438454000076 ], [ 46.821188684000049, 39.12181547800003 ], [ 46.82114153200007, 39.121192888000053 ], [ 46.821085165000056, 39.120570760000078 ], [ 46.821019585000045, 39.119949183000074 ], [ 46.820944805000067, 39.119328235000069 ], [ 46.82086083300004, 39.118708 ], [ 46.820767682000053, 39.118088561000036 ], [ 46.820665363000046, 39.117470001000072 ], [ 46.820553893000067, 39.116852401000074 ], [ 46.820433282000067, 39.116235845000062 ], [ 46.820303551000052, 39.115620413000045 ], [ 46.820164715000033, 39.115006188000052 ], [ 46.820016794000026, 39.11439325200007 ], [ 46.819859807000057, 39.113781685000049 ], [ 46.819693776000065, 39.113171570000077 ], [ 46.819518721000065, 39.112562987000047 ], [ 46.819334669000057, 39.111956018000058 ], [ 46.819141642000034, 39.111350745000038 ], [ 46.818939667000052, 39.110747246000074 ], [ 46.818728771000053, 39.110145601000056 ], [ 46.818508983000072, 39.109545894000064 ], [ 46.818280332000029, 39.108948199000054 ], [ 46.818042848000061, 39.108352602000025 ], [ 46.817796563000059, 39.107759177000048 ], [ 46.81754150900008, 39.107168005000062 ], [ 46.817277722000028, 39.106579163000049 ], [ 46.817005238000036, 39.10599273400004 ], [ 46.816724092000072, 39.105408791000059 ], [ 46.816434320000042, 39.104827413000066 ], [ 46.816135964000068, 39.104248679000079 ], [ 46.815829061000045, 39.103672664000044 ], [ 46.815513655000075, 39.103099446000044 ], [ 46.81518978500003, 39.102529100000027 ], [ 46.814857497000048, 39.10196170200004 ], [ 46.814516834000074, 39.101397331000044 ], [ 46.814167842000074, 39.100836056000048 ], [ 46.813810566000029, 39.10027795700006 ], [ 46.813445057000081, 39.099723105000066 ], [ 46.813071361000027, 39.099171575000071 ], [ 46.812689529000068, 39.09862344000004 ], [ 46.812299611000071, 39.098078773000054 ], [ 46.811901660000046, 39.097537645000045 ], [ 46.811495729000058, 39.097000133000051 ], [ 46.811081872000045, 39.096466301000078 ], [ 46.792862571000057, 39.073319512000069 ], [ 46.792439430000059, 39.072790035000025 ], [ 46.792008484000064, 39.072264398000073 ], [ 46.791569791000029, 39.071742672000028 ], [ 46.791123409000079, 39.071224925000024 ], [ 46.790669398000034, 39.070711227000061 ], [ 46.790207820000035, 39.070201644000065 ], [ 46.789738734000025, 39.069696246000035 ], [ 46.789262205000057, 39.069195099000069 ], [ 46.788778293000064, 39.068698272000063 ], [ 46.788287066000066, 39.068205829000078 ], [ 46.787788588000069, 39.067717834000064 ], [ 46.787282926000046, 39.067234355000039 ], [ 46.786770147000027, 39.066755456000067 ], [ 46.786250320000079, 39.066281199000059 ], [ 46.785723512000061, 39.065811647000032 ], [ 46.785189796000054, 39.065346864000048 ], [ 46.784649242000057, 39.064886912000077 ] ] ], [ [ [ 46.777603739000028, 39.174873690000027 ], [ 46.768563793000055, 39.158280813000033 ], [ 46.768123509000077, 39.158412 ], [ 46.767509788000041, 39.158587161000071 ], [ 46.766892947000031, 39.15875555100007 ], [ 46.766273110000043, 39.158917141000074 ], [ 46.765650401000073, 39.159071894000078 ], [ 46.76502494500005, 39.159219784000072 ], [ 46.764396865000037, 39.159360778000064 ], [ 46.763766287000067, 39.159494850000044 ], [ 46.763133338000046, 39.159621972000025 ], [ 46.762498144000062, 39.159742118000054 ], [ 46.761860831000035, 39.159855265000033 ], [ 46.761221529000068, 39.159961390000035 ], [ 46.760580362000042, 39.160060472000055 ], [ 46.75993746000006, 39.160152491000076 ], [ 46.759292951000077, 39.160237430000052 ], [ 46.758646964000036, 39.16031526900008 ], [ 46.75799962800005, 39.160385996000059 ], [ 46.757351072000063, 39.160449594000056 ], [ 46.756701427000053, 39.160506050000038 ], [ 46.756050821000031, 39.160555357000078 ], [ 46.755399384000043, 39.160597501000041 ], [ 46.754747247000068, 39.160632475000057 ], [ 46.75409454000004, 39.160660270000051 ], [ 46.75344139300006, 39.16068088600008 ], [ 46.752787937000051, 39.160694313000079 ], [ 46.752135044000056, 39.160700548000079 ], [ 46.751482104000047, 39.160699608000073 ], [ 46.750829245000034, 39.160691492000069 ], [ 46.750176598000053, 39.160676206000062 ], [ 46.749524294000025, 39.160653751000041 ], [ 46.748872461000076, 39.160624129000041 ], [ 46.748221231000059, 39.160587349000025 ], [ 46.747570733000032, 39.160543415000063 ], [ 46.746921096000051, 39.160492340000076 ], [ 46.746272450000049, 39.160434131000045 ], [ 46.745624924000026, 39.16036880200005 ], [ 46.744978649000075, 39.160296363000043 ], [ 46.744333750000067, 39.160216831000071 ], [ 46.743690359000027, 39.160130221000031 ], [ 46.743048603000034, 39.160036548000051 ], [ 46.742408610000041, 39.159935835000056 ], [ 46.74177050600008, 39.159828101000073 ], [ 46.741134420000037, 39.159713363000037 ], [ 46.740500478000058, 39.159591651000028 ], [ 46.73986880800004, 39.159462982000036 ], [ 46.739239534000035, 39.159327388000065 ], [ 46.738612780000039, 39.159184891000052 ], [ 46.737988675000054, 39.159035522000067 ], [ 46.737367340000048, 39.158879311000078 ], [ 46.736748901000055, 39.158716288000051 ], [ 46.736133479000046, 39.158546485000045 ], [ 46.735521198000072, 39.158369938000078 ], [ 46.734912181000027, 39.158186680000028 ], [ 46.734306548000063, 39.157996750000052 ], [ 46.733704418000059, 39.157800184000052 ], [ 46.733105915000067, 39.157597021000072 ], [ 46.732511155000054, 39.157387300000039 ], [ 46.73192025700007, 39.157171068000025 ], [ 46.731333340000049, 39.156948364000073 ], [ 46.730750519000026, 39.156719231000068 ], [ 46.730171913000049, 39.15648371900005 ], [ 46.729597635000061, 39.156241872000066 ], [ 46.72902780000004, 39.155993739000053 ], [ 46.72846252100004, 39.155739371000038 ], [ 46.72790191200005, 39.155478814000048 ], [ 46.727346082000054, 39.155212125000048 ], [ 46.72679514500004, 39.154939355000067 ], [ 46.72624920800007, 39.154660559000035 ], [ 46.725708381000061, 39.154375791000064 ], [ 46.725172773000054, 39.154085108000061 ], [ 46.724642488000029, 39.153788572000053 ], [ 46.724117633000048, 39.153486236000049 ], [ 46.723598312000036, 39.153178164000053 ], [ 46.723084630000074, 39.152864416000057 ], [ 46.722576687000071, 39.152545055000076 ], [ 46.72207458500003, 39.152220145000058 ], [ 46.721578424000029, 39.151889749000077 ], [ 46.721088303000045, 39.151553934000049 ], [ 46.720604321000053, 39.15121276900004 ], [ 46.720126571000037, 39.150866319000045 ], [ 46.71965515100004, 39.150514654000062 ], [ 46.719190153000056, 39.150157843000045 ], [ 46.718731670000068, 39.149795958000027 ], [ 46.718279794000068, 39.149429072000032 ], [ 46.717834614000026, 39.149057259000074 ], [ 46.717396220000069, 39.148680590000026 ], [ 46.716964697000037, 39.148299141000052 ], [ 46.716540132000034, 39.147912990000066 ], [ 46.71612261100006, 39.147522209000044 ], [ 46.715712214000064, 39.147126883000055 ], [ 46.715309026000057, 39.146727084000077 ], [ 46.714913124000077, 39.146322896000072 ], [ 46.714524589000064, 39.145914398000059 ], [ 46.714143497000066, 39.14550167200008 ], [ 46.713769924000076, 39.145084798000028 ], [ 46.713403945000039, 39.144663861000026 ], [ 46.713045632000046, 39.144238945000041 ], [ 46.712695057000076, 39.143810134000034 ], [ 46.71235228900008, 39.143377513000075 ], [ 46.694401748000075, 39.120532945000036 ], [ 46.694063036000045, 39.120098011000039 ], [ 46.693732243000056, 39.119659393000063 ], [ 46.69340943800006, 39.119217179000032 ], [ 46.693094681000048, 39.118771460000062 ], [ 46.69278803800006, 39.118322323000029 ], [ 46.692489568000042, 39.117869857000073 ], [ 46.692199330000051, 39.117414155000063 ], [ 46.691917384000078, 39.116955304000044 ], [ 46.691643785000053, 39.116493399000035 ], [ 46.691378587000031, 39.116028529000062 ], [ 46.69112184200003, 39.115560789000028 ], [ 46.690873602000067, 39.115090271000042 ], [ 46.690633917000071, 39.114617070000065 ], [ 46.690402834000054, 39.114141280000069 ], [ 46.690180398000052, 39.113662994000038 ], [ 46.689966654000045, 39.11318231000007 ], [ 46.689761645000033, 39.112699323000072 ], [ 46.689565412000036, 39.112214130000041 ], [ 46.689377991000072, 39.111726825000062 ], [ 46.689199423000048, 39.111237507000055 ], [ 46.68902974100007, 39.110746274000064 ], [ 46.688868979000063, 39.110253224000076 ], [ 46.688717169000029, 39.10975845400003 ], [ 46.688574342000038, 39.109262065000053 ], [ 46.688440525000033, 39.108764152000049 ], [ 46.688315746000058, 39.108264819000055 ], [ 46.68820002700005, 39.107764161000034 ], [ 46.688093393000031, 39.107262281000033 ], [ 46.687995866000051, 39.106759278000027 ], [ 46.687907462000055, 39.106255254000075 ], [ 46.687828203000038, 39.105750305000072 ], [ 46.687758100000053, 39.105244537000033 ], [ 46.687697169000046, 39.104738045000033 ], [ 46.68764542200006, 39.104230935000032 ], [ 46.687602868000056, 39.103723308000042 ], [ 46.687569517000043, 39.103215261000059 ], [ 46.68754537500007, 39.102706898000065 ], [ 46.68753044400006, 39.102198322000049 ], [ 46.687524731000053, 39.101689631000056 ], [ 46.687528234000069, 39.101180928000076 ], [ 46.687540953000052, 39.100672313000075 ], [ 46.687562885000034, 39.100163889000044 ], [ 46.687594027000046, 39.099655760000076 ], [ 46.687634369000079, 39.099148021000076 ], [ 46.687683906000075, 39.098640777000071 ], [ 46.687742627000034, 39.098134128000027 ], [ 46.687810521000074, 39.097628174000079 ], [ 46.687887572000079, 39.097123020000026 ], [ 46.687973766000027, 39.096618763000038 ], [ 46.688069085000052, 39.096115503000078 ], [ 46.688173511000059, 39.095613344000071 ], [ 46.688287023000044, 39.095112381000035 ], [ 46.688409596000042, 39.094612718000064 ], [ 46.688541207000071, 39.094114452000042 ], [ 46.688681830000064, 39.093617685000027 ], [ 46.688831435000054, 39.093122512000036 ], [ 46.688989994000053, 39.092629037000052 ], [ 46.689157474000069, 39.092137352000066 ], [ 46.689333843000043, 39.091647561000059 ], [ 46.689519063000034, 39.091159757000071 ], [ 46.689713099000073, 39.090674039000078 ], [ 46.689915911000071, 39.090190504000077 ], [ 46.690127460000042, 39.089709245000051 ], [ 46.690347702000054, 39.089230366000038 ], [ 46.690576594000049, 39.088753953000037 ], [ 46.69081409000006, 39.088280108000049 ], [ 46.691060143000072, 39.087808923000068 ], [ 46.691314702000057, 39.087340488000052 ], [ 46.691577718000076, 39.08687490300008 ], [ 46.691849138000066, 39.086412255000027 ], [ 46.69212890600005, 39.085952641000063 ], [ 46.692416969000078, 39.085496147000072 ], [ 46.69271326900008, 39.085042871000041 ], [ 46.693017744000031, 39.08459289700005 ], [ 46.693330337000077, 39.084146317000034 ], [ 46.693650983000055, 39.083703219000029 ], [ 46.693979618000071, 39.083263693000049 ], [ 46.694316178000065, 39.082827825000038 ], [ 46.694660595000073, 39.082395703000032 ], [ 46.69501279900004, 39.081967413000029 ], [ 46.695372723000048, 39.081543039000053 ], [ 46.695740292000039, 39.081122666000056 ], [ 46.696115434000035, 39.080706380000038 ], [ 46.696498074000033, 39.080294259000027 ], [ 46.696888136000041, 39.07988639000007 ], [ 46.697285541000042, 39.07948285100008 ], [ 46.697690211000065, 39.079083725000032 ], [ 46.698102065000057, 39.078689087000043 ], [ 46.698521022000079, 39.078299020000031 ], [ 46.698946996000075, 39.077913601000034 ], [ 46.699379904000068, 39.077532906000044 ], [ 46.699819658000081, 39.077157010000064 ], [ 46.700266173000045, 39.07678598900003 ], [ 46.700719356000036, 39.076419915000031 ], [ 46.701179121000052, 39.076058864000061 ], [ 46.701645374000066, 39.075702905000071 ], [ 46.702118023000025, 39.07535211000004 ], [ 46.702596972000038, 39.075006550000069 ], [ 46.702871372000061, 39.074814104000041 ], [ 46.687990249000052, 39.061018791000038 ], [ 46.687919769000075, 39.061066629000038 ], [ 46.687322374000075, 39.061481650000076 ], [ 46.686731153000039, 39.061902020000048 ], [ 46.686146187000077, 39.062327676000052 ], [ 46.685567553000055, 39.062758565000024 ], [ 46.684995330000049, 39.063194630000055 ], [ 46.684429592000072, 39.06363581100004 ], [ 46.683870417000037, 39.064082051000071 ], [ 46.683317878000025, 39.064533287000074 ], [ 46.68277204900005, 39.064989464000064 ], [ 46.682233001000043, 39.06545051900008 ], [ 46.681700809000063, 39.065916390000041 ], [ 46.681175541000073, 39.066387018000057 ], [ 46.680657269000051, 39.066862336000042 ], [ 46.680146060000027, 39.067342284000063 ], [ 46.679641985000046, 39.067826797000066 ], [ 46.679145109000046, 39.068315809000069 ], [ 46.678655499000058, 39.068809258000044 ], [ 46.678173220000076, 39.069307079000055 ], [ 46.677698337000038, 39.069809202000044 ], [ 46.677230912000027, 39.070315563000065 ], [ 46.676771009000049, 39.070826092000061 ], [ 46.676318688000038, 39.071340725000027 ], [ 46.67587401000003, 39.071859389000053 ], [ 46.675437034000026, 39.072382018000042 ], [ 46.675007819000029, 39.07290854300004 ], [ 46.674586420000026, 39.07343889200007 ], [ 46.674172897000062, 39.07397299400003 ], [ 46.673767303000034, 39.074510780000026 ], [ 46.673369691000062, 39.075052180000057 ], [ 46.672980117000066, 39.075597117000029 ], [ 46.672598630000039, 39.076145521000058 ], [ 46.672225284000035, 39.076697320000051 ], [ 46.67186012600007, 39.077252439000063 ], [ 46.671503207000058, 39.07781080400008 ], [ 46.671154572000034, 39.078372343000069 ], [ 46.67081427100004, 39.078936979000048 ], [ 46.670482348000064, 39.079504639000049 ], [ 46.670158847000039, 39.080075244000057 ], [ 46.669843810000032, 39.080648721000045 ], [ 46.669537283000068, 39.081224994000024 ], [ 46.66923930300004, 39.081803982000054 ], [ 46.668949912000073, 39.082385614000032 ], [ 46.66866914700006, 39.082969809000076 ], [ 46.668397048000031, 39.083556489000046 ], [ 46.668133651000062, 39.084145579000051 ], [ 46.66787898900003, 39.084736996000061 ], [ 46.667633098000067, 39.085330666000061 ], [ 46.667396011000051, 39.085926505000032 ], [ 46.667167759000051, 39.086524438000026 ], [ 46.666948372000036, 39.087124384000049 ], [ 46.666737883000053, 39.087726262000047 ], [ 46.66653631500003, 39.08832999200007 ], [ 46.666343699000038, 39.088935496000033 ], [ 46.666160060000038, 39.089542691000077 ], [ 46.665985422000062, 39.090151498000068 ], [ 46.665819808000037, 39.090761834000034 ], [ 46.665663242000051, 39.09137361900008 ], [ 46.665515743000071, 39.091986770000062 ], [ 46.665377333000038, 39.092601208000076 ], [ 46.665248029000054, 39.093216850000033 ], [ 46.665127849000044, 39.093833613000072 ], [ 46.665016811000044, 39.094451414000048 ], [ 46.664914927000041, 39.095070175000046 ], [ 46.664822213000036, 39.095689809000078 ], [ 46.664738679000038, 39.096310236000079 ], [ 46.664664340000058, 39.096931374000064 ], [ 46.664599204000069, 39.097553137000034 ], [ 46.664543280000032, 39.098175446000027 ], [ 46.664496575000044, 39.098798216000034 ], [ 46.664459098000066, 39.099421363000033 ], [ 46.664430851000077, 39.100044807000074 ], [ 46.66441184100006, 39.10066846400008 ], [ 46.664402069000062, 39.101292250000029 ], [ 46.66440153700006, 39.10191608100007 ], [ 46.664410245000056, 39.102539877000027 ], [ 46.664428193000049, 39.103163552000069 ], [ 46.664455377000081, 39.103787024000042 ], [ 46.66449179600005, 39.104410210000026 ], [ 46.664537444000075, 39.105033027000047 ], [ 46.66459231400006, 39.105655391000028 ], [ 46.664656401000059, 39.106277221000028 ], [ 46.664729696000052, 39.106898433000026 ], [ 46.664812191000067, 39.107518945000038 ], [ 46.664903872000025, 39.108138674000031 ], [ 46.665004730000078, 39.108757536000041 ], [ 46.665114750000043, 39.109375451000062 ], [ 46.665233918000069, 39.109992334000026 ], [ 46.665362218000041, 39.11060810400005 ], [ 46.665499634000071, 39.111222680000026 ], [ 46.665646148000064, 39.111835979000034 ], [ 46.665801740000063, 39.112447920000079 ], [ 46.665966389000062, 39.113058421000062 ], [ 46.666140075000044, 39.113667400000054 ], [ 46.666322775000026, 39.114274776000059 ], [ 46.666514462000066, 39.11488047000006 ], [ 46.666715114000056, 39.115484399000024 ], [ 46.666924703000063, 39.116086483000061 ], [ 46.667143202000034, 39.116686643000037 ], [ 46.667370581000057, 39.117284798000071 ], [ 46.667606811000041, 39.117880866000064 ], [ 46.667851860000042, 39.118474773000059 ], [ 46.668105695000065, 39.119066435000036 ], [ 46.668368284000053, 39.11965577400008 ], [ 46.668639591000044, 39.120242713000039 ], [ 46.668919580000079, 39.120827174000055 ], [ 46.669208216000072, 39.121409078000056 ], [ 46.66950545800006, 39.12198834600008 ], [ 46.669811267000057, 39.122564904000058 ], [ 46.670125604000077, 39.123138674000074 ], [ 46.670448426000064, 39.123709577000056 ], [ 46.670779691000064, 39.124277539000047 ], [ 46.671119354000041, 39.124842486000034 ], [ 46.671467371000062, 39.125404339000056 ], [ 46.671823695000057, 39.125963026000079 ], [ 46.672188278000078, 39.126518471000054 ], [ 46.672561074000043, 39.127070600000025 ], [ 46.672942031000048, 39.12761934100007 ], [ 46.673331101000031, 39.128164618000028 ], [ 46.673728229000062, 39.128706360000081 ], [ 46.674133365000046, 39.12924449500008 ], [ 46.674546453000062, 39.129778951000048 ], [ 46.69274811300005, 39.152951156000029 ], [ 46.693171241000073, 39.153481156000055 ], [ 46.693602206000037, 39.154007315000058 ], [ 46.69404095200008, 39.15452956200005 ], [ 46.694487419000041, 39.155047831000047 ], [ 46.694941547000042, 39.155562047000046 ], [ 46.695403276000036, 39.156072146000042 ], [ 46.695872545000043, 39.156578060000072 ], [ 46.696349293000026, 39.15707971900008 ], [ 46.696833455000046, 39.157577057000026 ], [ 46.697324966000053, 39.158070008000038 ], [ 46.697823760000063, 39.158558506000077 ], [ 46.698329773000069, 39.159042485000043 ], [ 46.698842935000073, 39.159521882000035 ], [ 46.699363180000034, 39.159996632000059 ], [ 46.699890437000079, 39.160466672000041 ], [ 46.700424636000037, 39.160931938000033 ], [ 46.70096570700008, 39.161392370000044 ], [ 46.701513576000025, 39.161847905000059 ], [ 46.702068173000043, 39.16229848200004 ], [ 46.702629419000061, 39.162744042000043 ], [ 46.703197245000069, 39.16318452400003 ], [ 46.703771571000061, 39.163619871000037 ], [ 46.70435232300008, 39.164050025000051 ], [ 46.704939422000052, 39.164474927000072 ], [ 46.705532791000053, 39.164894521000065 ], [ 46.706132349000029, 39.165308750000065 ], [ 46.706738018000067, 39.165717560000076 ], [ 46.707349716000067, 39.166120897000042 ], [ 46.70796736300008, 39.166518705000044 ], [ 46.708590875000027, 39.166910932000064 ], [ 46.709220168000058, 39.167297527000073 ], [ 46.709855160000075, 39.167678435000028 ], [ 46.710495767000054, 39.168053609000026 ], [ 46.711141901000076, 39.168422995000071 ], [ 46.711793478000061, 39.168786548000071 ], [ 46.712450409000041, 39.169144215000074 ], [ 46.713112608000074, 39.16949595300008 ], [ 46.713779986000077, 39.169841710000071 ], [ 46.714452453000035, 39.170181442000057 ], [ 46.715129922000074, 39.170515107000028 ], [ 46.715812300000039, 39.170842654000069 ], [ 46.71649949600004, 39.171164044000079 ], [ 46.717191420000063, 39.171479233000071 ], [ 46.717887978000078, 39.171788178000043 ], [ 46.718589078000036, 39.172090841000056 ], [ 46.719294627000068, 39.17238717500004 ], [ 46.72000452900005, 39.172677147000059 ], [ 46.720718690000069, 39.172960714000055 ], [ 46.721437016000039, 39.173237841000059 ], [ 46.722159409000028, 39.173508489000028 ], [ 46.722885774000076, 39.173772622000058 ], [ 46.723616013000026, 39.174030206000054 ], [ 46.72435002900005, 39.174281207000035 ], [ 46.725087724000048, 39.174525588000051 ], [ 46.725829, 39.174763321000057 ], [ 46.72657375700004, 39.174994372000072 ], [ 46.727321896000035, 39.175218708000045 ], [ 46.728073318000042, 39.175436303000026 ], [ 46.728827921000061, 39.175647125000069 ], [ 46.729585605000068, 39.17585114700006 ], [ 46.730346269000052, 39.176048344000037 ], [ 46.731109811000067, 39.176238685000044 ], [ 46.731876130000046, 39.176422147000039 ], [ 46.732645123000054, 39.176598707000039 ], [ 46.733416686000055, 39.176768338000045 ], [ 46.734190718000036, 39.17693102100003 ], [ 46.734967114000028, 39.177086732000078 ], [ 46.73574577100004, 39.177235450000069 ], [ 46.736526586000025, 39.17737715700008 ], [ 46.737309454000069, 39.17751183200005 ], [ 46.738094269000044, 39.177639457000055 ], [ 46.738880928000071, 39.177760016000036 ], [ 46.739669325000079, 39.177873496000075 ], [ 46.740459355000041, 39.177979876000052 ], [ 46.741250911000066, 39.178079145000027 ], [ 46.742043891000037, 39.178171288000044 ], [ 46.742838185000039, 39.17825629500004 ], [ 46.743633690000081, 39.178334154000027 ], [ 46.744430297000065, 39.178404852000028 ], [ 46.745227901000078, 39.178468384000041 ], [ 46.746026397000037, 39.178524738000078 ], [ 46.746825674000036, 39.178573908000033 ], [ 46.747625629000026, 39.178615887000035 ], [ 46.748426155000061, 39.178650670000025 ], [ 46.749227144000031, 39.178678251000065 ], [ 46.750028487000066, 39.178698627000074 ], [ 46.750830080000071, 39.178711797000062 ], [ 46.751631815000053, 39.178717756000026 ], [ 46.752433586000052, 39.178716506000058 ], [ 46.753235283000038, 39.178708046000054 ], [ 46.754036350000035, 39.178692387000069 ], [ 46.754837131000045, 39.178669531000025 ], [ 46.755637519000061, 39.178639478000036 ], [ 46.756437407000078, 39.178602234000039 ], [ 46.757236689000081, 39.178557804000036 ], [ 46.758035257000074, 39.178506194000079 ], [ 46.758833006000032, 39.178447410000047 ], [ 46.759629828000072, 39.178381459000036 ], [ 46.760425618000056, 39.178308352000045 ], [ 46.761220269000034, 39.178228098000034 ], [ 46.762013674000059, 39.178140707000068 ], [ 46.762805731000071, 39.178046191000078 ], [ 46.763596329000052, 39.177944561000061 ], [ 46.764385367000045, 39.177835835000053 ], [ 46.765172737000057, 39.177720024000052 ], [ 46.76595833500005, 39.177597143000071 ], [ 46.766742057000044, 39.177467212000067 ], [ 46.767523795000045, 39.177330243000029 ], [ 46.768303450000076, 39.177186260000042 ], [ 46.769080914000028, 39.177035279000052 ], [ 46.769856083000036, 39.176877319000027 ], [ 46.77062885600003, 39.176712404000057 ], [ 46.771399129000031, 39.176540555000031 ], [ 46.772166799000047, 39.176361794000059 ], [ 46.772931764000077, 39.176176146000046 ], [ 46.773693921000074, 39.175983636000069 ], [ 46.774453170000072, 39.175784288000045 ], [ 46.77520940800008, 39.175578131000066 ], [ 46.77596253400003, 39.175365189000047 ], [ 46.776712450000048, 39.175145493000059 ], [ 46.77745905300003, 39.17491907200008 ], [ 46.777603739000028, 39.174873690000027 ] ] ] ] } }
]
}
