{
"type": "FeatureCollection",
"name": "Inner_Horizontal",
"crs": { "type": "name", "properties": { "name": "urn:ogc:def:crs:OGC:1.3:CRS84" } },
"features": [
{ "type": "Feature", "properties": { "OBJECTID": 1, "SURFACE_TYPE": "INNER_HORIZONTAL", "RUNWAY": "COMMON", "RADIUS_M": 4000.0, "HEIGHT_M": 45.0, "SLOPE_PCT": 0.0, "BASE_ELEV": null, "START_ELEV": null, "END_ELEV": null, "Shape_Length": 0.48728390007252154, "Shape_Area": 0.0069853877685744185 }, "geometry": { "type": "MultiPolygon", "coordinates": [ [ [ [ 46.790677038000069, 39.144317636000039 ], [ 46.791029434000052, 39.14388905900006 ], [ 46.791374017000066, 39.14345664800004 ], [ 46.791710720000026, 39.143020491000073 ], [ 46.792039475000081, 39.142580673000055 ], [ 46.792360218000056, 39.142137283000068 ], [ 46.792672882000033, 39.141690408000045 ], [ 46.79297740800007, 39.141240139000047 ], [ 46.793273735000071, 39.140786565000042 ], [ 46.793561802000056, 39.140329777000034 ], [ 46.79384155300005, 39.139869866000026 ], [ 46.794112932000075, 39.139406923000024 ], [ 46.794375887000058, 39.138941041000066 ], [ 46.794630362000078, 39.138472313000079 ], [ 46.794876309000074, 39.138000833000035 ], [ 46.795113679000053, 39.13752669400003 ], [ 46.795342423000079, 39.137049991000026 ], [ 46.795562496000059, 39.136570820000031 ], [ 46.795773857000029, 39.136089276000064 ], [ 46.795976461000066, 39.135605455000075 ], [ 46.796170269000072, 39.135119453000073 ], [ 46.796355242000061, 39.134631369000033 ], [ 46.796531344000073, 39.134141297000042 ], [ 46.796698538000044, 39.133649338000055 ], [ 46.796856794000064, 39.133155588000079 ], [ 46.797006078000038, 39.13266014800007 ], [ 46.797146362000035, 39.132163114000036 ], [ 46.797277619000056, 39.131664587000046 ], [ 46.797399820000066, 39.131164665000028 ], [ 46.797512943000072, 39.130663449000053 ], [ 46.797616964000042, 39.130161039000029 ], [ 46.797711864000064, 39.129657535000035 ], [ 46.797797624000054, 39.129153037000037 ], [ 46.797874228000069, 39.128647645000058 ], [ 46.79794165900006, 39.128141462000031 ], [ 46.797999904000051, 39.127634587000045 ], [ 46.798048953000034, 39.127127122000047 ], [ 46.79808879400008, 39.126619168000047 ], [ 46.79811942200007, 39.126110827000048 ], [ 46.798140829000033, 39.12560219900007 ], [ 46.798153014000036, 39.12509338600006 ], [ 46.798155971000028, 39.124584490000075 ], [ 46.798149701000057, 39.124075613000059 ], [ 46.798134205000053, 39.123566855000036 ], [ 46.798109489000069, 39.123058318000062 ], [ 46.798075554000036, 39.122550103000037 ], [ 46.798032410000076, 39.122042313000065 ], [ 46.797980064000058, 39.121535048000055 ], [ 46.797918529000071, 39.121028409000075 ], [ 46.797847815000068, 39.120522498000071 ], [ 46.79776793700006, 39.120017414000074 ], [ 46.797678911000048, 39.119513260000076 ], [ 46.797580757000048, 39.119010135000053 ], [ 46.797473492000051, 39.118508140000074 ], [ 46.797357139000042, 39.118007375000047 ], [ 46.79723172000007, 39.117507940000053 ], [ 46.797097262000079, 39.117009934000066 ], [ 46.796953791000078, 39.116513456000064 ], [ 46.796801335000055, 39.116018607000058 ], [ 46.796639927000058, 39.115525483000056 ], [ 46.796469599000034, 39.11503418500007 ], [ 46.796290382000052, 39.114544808000062 ], [ 46.796102315000041, 39.114057452000054 ], [ 46.795905434000076, 39.113572213000054 ], [ 46.795699780000064, 39.11308918800006 ], [ 46.795485393000035, 39.112608474000069 ], [ 46.795262316000048, 39.112130165000053 ], [ 46.795030593000035, 39.111654359000056 ], [ 46.794790273000046, 39.111181148000071 ], [ 46.79454140100006, 39.110710628000049 ], [ 46.794284029000039, 39.110242892000031 ], [ 46.794018208000068, 39.109778035000033 ], [ 46.793743989000063, 39.109316147000072 ], [ 46.793461429000047, 39.108857322000063 ], [ 46.793170585000041, 39.108401651000065 ], [ 46.79287151300008, 39.107949224000038 ], [ 46.792564274000028, 39.10750013300003 ], [ 46.792248929000039, 39.107054466000079 ], [ 46.791925542000058, 39.106612311000049 ], [ 46.791594176000046, 39.106173758000068 ], [ 46.79125489900008, 39.105738894000069 ], [ 46.773278899000047, 39.082893396000031 ], [ 46.772935673000063, 39.082460713000046 ], [ 46.772584648000077, 39.082031850000078 ], [ 46.772225895000076, 39.081606889000057 ], [ 46.77185948500005, 39.081185917000028 ], [ 46.771485491000078, 39.08076901700008 ], [ 46.77110398800005, 39.080356272000074 ], [ 46.77071505300006, 39.079947764000053 ], [ 46.770318762000045, 39.079543576000049 ], [ 46.769915194000077, 39.079143785000042 ], [ 46.76950443000004, 39.078748474000065 ], [ 46.769086553000079, 39.078357720000042 ], [ 46.76866164300003, 39.077971602000048 ], [ 46.768229789000031, 39.077590195000028 ], [ 46.767791074000058, 39.077213576000077 ], [ 46.767345588000069, 39.076841821000073 ], [ 46.766893417000063, 39.076475001000063 ], [ 46.766434651000054, 39.076113193000026 ], [ 46.765969385000062, 39.07575646600003 ], [ 46.765497708000055, 39.075404892000051 ], [ 46.76501971700003, 39.075058541000033 ], [ 46.764535504000037, 39.074717483000029 ], [ 46.764045168000052, 39.074381784000025 ], [ 46.763548806000074, 39.07405151200004 ], [ 46.763046516000031, 39.073726732000068 ], [ 46.76253839900005, 39.073407510000038 ], [ 46.762024557000075, 39.073093908000033 ], [ 46.761505090000071, 39.072785989000067 ], [ 46.760980104000055, 39.072483815000055 ], [ 46.760449702000074, 39.072187445000054 ], [ 46.75991399000003, 39.071896938000066 ], [ 46.759373074000052, 39.071612353000035 ], [ 46.758827063000069, 39.071333745000061 ], [ 46.758276065000075, 39.071061171000053 ], [ 46.757720191000033, 39.070794685000067 ], [ 46.75715954900005, 39.070534340000052 ], [ 46.75659425300006, 39.070280188000027 ], [ 46.75602441500007, 39.070032278000042 ], [ 46.755450148000079, 39.06979066100007 ], [ 46.75487156500003, 39.069555383000079 ], [ 46.754288784000039, 39.069326494000052 ], [ 46.753701920000026, 39.069104038000035 ], [ 46.753111090000061, 39.068888059000074 ], [ 46.752516410000055, 39.068678600000055 ], [ 46.751918, 39.068475702000057 ], [ 46.751315980000072, 39.06827940800008 ], [ 46.750710467000033, 39.068089755000074 ], [ 46.75010158300006, 39.067906780000044 ], [ 46.749489449000066, 39.067730521000044 ], [ 46.748874188000059, 39.067561013000045 ], [ 46.748255921000066, 39.067398289000039 ], [ 46.747634771000037, 39.067242382000074 ], [ 46.747010863000071, 39.067093323000051 ], [ 46.746384320000061, 39.066951140000072 ], [ 46.74575526700005, 39.066815865000081 ], [ 46.745123830000068, 39.066687521000063 ], [ 46.744490134000046, 39.066566135000073 ], [ 46.743854303000035, 39.066451732000075 ], [ 46.743216468000071, 39.066344333000075 ], [ 46.742576752000048, 39.066243962000044 ], [ 46.741935284000078, 39.066150637000078 ], [ 46.74129219200006, 39.066064377000032 ], [ 46.74064760300007, 39.065985199000067 ], [ 46.740001646000053, 39.065913119000072 ], [ 46.739354450000064, 39.065848151000068 ], [ 46.738706142000069, 39.065790309000079 ], [ 46.738056851000067, 39.065739603000054 ], [ 46.737406709000027, 39.065696044000049 ], [ 46.736755843000026, 39.065659641000025 ], [ 46.736104383000054, 39.065630401000078 ], [ 46.735452459000044, 39.065608328000053 ], [ 46.734800199000063, 39.065593429000046 ], [ 46.734147736000068, 39.065585706000036 ], [ 46.733495198000071, 39.065585161000058 ], [ 46.732842713000025, 39.065591793000067 ], [ 46.732190415000048, 39.065605602000062 ], [ 46.731538430000057, 39.065626583000039 ], [ 46.730886891000068, 39.065654735000066 ], [ 46.730235924000056, 39.065690050000057 ], [ 46.729585662000034, 39.065732522000076 ], [ 46.728936231000034, 39.065782142000046 ], [ 46.728287764000072, 39.065838901000063 ], [ 46.727640388000054, 39.065902786000038 ], [ 46.726994231000049, 39.065973787000075 ], [ 46.726349423000045, 39.066051888000061 ], [ 46.725706092000053, 39.06613707300005 ], [ 46.725064366000026, 39.066229326000041 ], [ 46.724424372000044, 39.066328629000054 ], [ 46.723786238000059, 39.066434962000073 ], [ 46.723150091000036, 39.066548303000047 ], [ 46.722516059000043, 39.066668630000038 ], [ 46.721884265000028, 39.066795919000072 ], [ 46.72125483700006, 39.066930145000072 ], [ 46.720627900000068, 39.06707128100004 ], [ 46.720003578000046, 39.067219299000044 ], [ 46.719381996000038, 39.067374170000051 ], [ 46.71876327800004, 39.067535862000057 ], [ 46.718147545000079, 39.067704343000059 ], [ 46.717534924000063, 39.067879581000057 ], [ 46.716925531000072, 39.068061540000031 ], [ 46.716319493000071, 39.068250184000078 ], [ 46.715716927000074, 39.068445475000033 ], [ 46.71511795400005, 39.068647374000079 ], [ 46.714522693000049, 39.068855842000062 ], [ 46.713931264000053, 39.069070837000027 ], [ 46.713343782000038, 39.06929231600003 ], [ 46.712760366000055, 39.069520235000027 ], [ 46.712181132000069, 39.069754549000038 ], [ 46.711606195000059, 39.069995210000059 ], [ 46.711035668000079, 39.070242172000064 ], [ 46.71046966800003, 39.070495385000072 ], [ 46.709908304000066, 39.070754798000053 ], [ 46.709351691000052, 39.071020360000034 ], [ 46.708799938000027, 39.071292018000065 ], [ 46.708253154000033, 39.071569719000024 ], [ 46.70771145100008, 39.07185340500007 ], [ 46.707174933000033, 39.072143022000034 ], [ 46.706643710000037, 39.072438513000066 ], [ 46.706117887000062, 39.07273981600008 ], [ 46.70559756800003, 39.073046874000056 ], [ 46.705082857000036, 39.073359624000034 ], [ 46.704573857000071, 39.07367800600008 ], [ 46.704070668000043, 39.074001954000039 ], [ 46.703573392000067, 39.074331404000077 ], [ 46.703082128000062, 39.074666292000074 ], [ 46.702596972000038, 39.075006549000079 ], [ 46.702118023000025, 39.07535211000004 ], [ 46.701645374000066, 39.075702905000071 ], [ 46.701179121000052, 39.076058863000071 ], [ 46.700719356000036, 39.076419915000031 ], [ 46.700266173000045, 39.07678598800004 ], [ 46.699819658000081, 39.077157009000075 ], [ 46.699379904000068, 39.077532905000055 ], [ 46.698946996000075, 39.077913600000045 ], [ 46.698521022000079, 39.078299020000031 ], [ 46.698102065000057, 39.078689087000043 ], [ 46.697690211000065, 39.079083724000043 ], [ 46.697285541000042, 39.079482850000034 ], [ 46.696888136000041, 39.07988638900008 ], [ 46.696498074000033, 39.080294259000027 ], [ 46.696115434000035, 39.080706379000048 ], [ 46.695740292000039, 39.081122666000056 ], [ 46.695372723000048, 39.081543039000053 ], [ 46.69501279900004, 39.081967413000029 ], [ 46.694660595000073, 39.082395703000032 ], [ 46.694316178000065, 39.082827825000038 ], [ 46.693979618000071, 39.083263693000049 ], [ 46.693650983000055, 39.083703218000039 ], [ 46.693330337000077, 39.084146316000044 ], [ 46.693017744000031, 39.084592896000061 ], [ 46.69271326900008, 39.085042870000052 ], [ 46.692416969000078, 39.085496147000072 ], [ 46.69212890600005, 39.085952640000073 ], [ 46.691849138000066, 39.086412255000027 ], [ 46.691577718000076, 39.086874902000034 ], [ 46.691314702000057, 39.087340488000052 ], [ 46.691060143000072, 39.087808922000079 ], [ 46.69081409000006, 39.088280108000049 ], [ 46.690576594000049, 39.088753953000037 ], [ 46.690347702000054, 39.089230365000049 ], [ 46.690127460000042, 39.089709246000041 ], [ 46.689915911000071, 39.090190503000031 ], [ 46.689713099000073, 39.090674038000031 ], [ 46.689519063000034, 39.091159756000025 ], [ 46.689333843000043, 39.091647560000069 ], [ 46.689157474000069, 39.092137352000066 ], [ 46.688989994000053, 39.092629036000062 ], [ 46.688831435000054, 39.093122512000036 ], [ 46.688681830000064, 39.093617685000027 ], [ 46.688541207000071, 39.094114452000042 ], [ 46.688409596000042, 39.094612717000075 ], [ 46.688287023000044, 39.095112381000035 ], [ 46.688173511000059, 39.095613343000025 ], [ 46.688069085000052, 39.096115503000078 ], [ 46.687973766000027, 39.096618763000038 ], [ 46.687887572000079, 39.097123020000026 ], [ 46.687810521000074, 39.097628174000079 ], [ 46.687742627000034, 39.098134127000037 ], [ 46.687683906000075, 39.098640776000025 ], [ 46.687634369000079, 39.09914802000003 ], [ 46.687594026000056, 39.099655759000029 ], [ 46.687562885000034, 39.100163889000044 ], [ 46.687540953000052, 39.100672313000075 ], [ 46.687528234000069, 39.10118092700003 ], [ 46.687524731000053, 39.101689630000067 ], [ 46.68753044400006, 39.10219832100006 ], [ 46.68754537500007, 39.102706898000065 ], [ 46.687569517000043, 39.103215261000059 ], [ 46.687602868000056, 39.103723307000053 ], [ 46.68764542200006, 39.104230935000032 ], [ 46.687697169000046, 39.104738045000033 ], [ 46.687758100000053, 39.105244536000043 ], [ 46.687828203000038, 39.105750304000026 ], [ 46.687907462000055, 39.106255253000029 ], [ 46.687995866000051, 39.106759278000027 ], [ 46.688093393000031, 39.107262281000033 ], [ 46.68820002700005, 39.107764161000034 ], [ 46.688315746000058, 39.108264818000066 ], [ 46.688440525000033, 39.108764152000049 ], [ 46.688574342000038, 39.109262064000063 ], [ 46.688717169000029, 39.10975845400003 ], [ 46.688868979000063, 39.110253224000076 ], [ 46.68902974100007, 39.110746274000064 ], [ 46.689199423000048, 39.111237507000055 ], [ 46.689377991000072, 39.111726825000062 ], [ 46.689565412000036, 39.112214129000051 ], [ 46.689761645000033, 39.112699323000072 ], [ 46.689966654000045, 39.11318231000007 ], [ 46.690180398000052, 39.113662994000038 ], [ 46.690402834000054, 39.114141280000069 ], [ 46.690633917000071, 39.114617069000076 ], [ 46.690873602000067, 39.115090271000042 ], [ 46.69112184200003, 39.115560789000028 ], [ 46.691378587000031, 39.116028529000062 ], [ 46.691643785000053, 39.116493398000046 ], [ 46.691917384000078, 39.116955304000044 ], [ 46.692199330000051, 39.117414154000073 ], [ 46.692489568000042, 39.117869857000073 ], [ 46.69278803800006, 39.118322323000029 ], [ 46.693094681000048, 39.118771460000062 ], [ 46.69340943800006, 39.119217179000032 ], [ 46.693732243000056, 39.119659392000074 ], [ 46.694063036000045, 39.120098010000049 ], [ 46.694401748000075, 39.120532944000047 ], [ 46.71235228900008, 39.143377513000075 ], [ 46.712695057000076, 39.143810133000045 ], [ 46.713045632000046, 39.144238944000051 ], [ 46.713403945000039, 39.144663860000037 ], [ 46.713769924000076, 39.145084797000038 ], [ 46.714143497000066, 39.145501671000034 ], [ 46.714524589000064, 39.14591439700007 ], [ 46.714913124000077, 39.146322895000026 ], [ 46.715309026000057, 39.146727084000077 ], [ 46.715712214000064, 39.147126882000066 ], [ 46.71612261100006, 39.147522209000044 ], [ 46.716540132000034, 39.147912989000076 ], [ 46.716964697000037, 39.148299141000052 ], [ 46.717396220000069, 39.148680590000026 ], [ 46.717834614000026, 39.149057258000028 ], [ 46.718279794000068, 39.149429072000032 ], [ 46.718731670000068, 39.149795958000027 ], [ 46.719190153000056, 39.150157842000056 ], [ 46.71965515100004, 39.150514653000073 ], [ 46.720126571000037, 39.150866318000055 ], [ 46.720604321000053, 39.15121276800005 ], [ 46.721088303000045, 39.151553934000049 ], [ 46.721578424000029, 39.151889748000031 ], [ 46.72207458500003, 39.152220144000069 ], [ 46.722576687000071, 39.152545054000029 ], [ 46.723084630000074, 39.152864415000067 ], [ 46.723598312000036, 39.153178163000064 ], [ 46.724117633000048, 39.153486235000059 ], [ 46.724642488000029, 39.153788571000064 ], [ 46.725172773000054, 39.154085108000061 ], [ 46.725708381000061, 39.154375791000064 ], [ 46.72624920800007, 39.154660558000046 ], [ 46.72679514400005, 39.154939354000078 ], [ 46.727346082000054, 39.155212125000048 ], [ 46.72790191200005, 39.155478814000048 ], [ 46.728462520000051, 39.155739370000049 ], [ 46.72902780000004, 39.155993739000053 ], [ 46.729597635000061, 39.156241871000077 ], [ 46.730171913000049, 39.15648371900005 ], [ 46.730750519000026, 39.156719231000068 ], [ 46.731333340000049, 39.156948363000026 ], [ 46.73192025700007, 39.157171068000025 ], [ 46.732511155000054, 39.157387300000039 ], [ 46.733105914000078, 39.157597020000026 ], [ 46.733704418000059, 39.157800183000063 ], [ 46.734306548000063, 39.157996750000052 ], [ 46.734912181000027, 39.158186680000028 ], [ 46.735521198000072, 39.158369938000078 ], [ 46.736133479000046, 39.158546485000045 ], [ 46.736748901000055, 39.158716288000051 ], [ 46.737367340000048, 39.158879310000032 ], [ 46.737988675000054, 39.159035522000067 ], [ 46.738612780000039, 39.159184891000052 ], [ 46.739239534000035, 39.159327387000076 ], [ 46.73986880800004, 39.159462982000036 ], [ 46.740500478000058, 39.159591650000038 ], [ 46.741134420000037, 39.159713363000037 ], [ 46.74177050600008, 39.159828100000027 ], [ 46.742408610000041, 39.159935835000056 ], [ 46.743048603000034, 39.160036548000051 ], [ 46.743690359000027, 39.160130220000042 ], [ 46.744333750000067, 39.160216830000024 ], [ 46.744978649000075, 39.160296362000054 ], [ 46.745624924000026, 39.160368801000061 ], [ 46.746272450000049, 39.160434131000045 ], [ 46.746921096000051, 39.160492340000076 ], [ 46.747570733000032, 39.160543415000063 ], [ 46.748221231000059, 39.160587348000035 ], [ 46.748872461000076, 39.160624129000041 ], [ 46.749524294000025, 39.160653750000051 ], [ 46.750176598000053, 39.160676206000062 ], [ 46.750829245000034, 39.160691492000069 ], [ 46.751482104000047, 39.160699607000026 ], [ 46.752135044000056, 39.160700547000033 ], [ 46.752787937000051, 39.160694312000032 ], [ 46.75344139200007, 39.160680885000033 ], [ 46.75409454000004, 39.160660270000051 ], [ 46.754747247000068, 39.160632474000067 ], [ 46.755399384000043, 39.160597501000041 ], [ 46.756050821000031, 39.160555357000078 ], [ 46.756701427000053, 39.160506050000038 ], [ 46.757351072000063, 39.160449593000067 ], [ 46.75799962800005, 39.16038599500007 ], [ 46.758646964000036, 39.160315268000033 ], [ 46.759292951000077, 39.160237429000063 ], [ 46.75993746000006, 39.16015249000003 ], [ 46.760580362000042, 39.160060472000055 ], [ 46.761221529000068, 39.159961390000035 ], [ 46.761860831000035, 39.159855265000033 ], [ 46.762498144000062, 39.159742117000064 ], [ 46.763133338000046, 39.159621971000036 ], [ 46.763766287000067, 39.159494850000044 ], [ 46.764396865000037, 39.159360778000064 ], [ 46.76502494500005, 39.159219784000072 ], [ 46.765650401000073, 39.159071894000078 ], [ 46.766273110000043, 39.158917140000028 ], [ 46.766892947000031, 39.15875555100007 ], [ 46.767509787000051, 39.158587160000025 ], [ 46.768123509000077, 39.158412 ], [ 46.768733988000065, 39.158230106000076 ], [ 46.76934110500008, 39.158041517000072 ], [ 46.76994473600007, 39.157846266000035 ], [ 46.770544762000043, 39.15764439600008 ], [ 46.771141063000073, 39.157435945000032 ], [ 46.771733519000065, 39.15722095600006 ], [ 46.772322013000064, 39.156999471000063 ], [ 46.772906425000031, 39.156771535000075 ], [ 46.773486643000069, 39.156537193000077 ], [ 46.774062547000028, 39.156296492000024 ], [ 46.774634023000033, 39.156049480000036 ], [ 46.775200958000028, 39.155796206000048 ], [ 46.775763238000081, 39.155536721000033 ], [ 46.776320752000061, 39.155271077000066 ], [ 46.776873386000034, 39.154999327000041 ], [ 46.777421033000053, 39.15472152500007 ], [ 46.777963580000062, 39.154437727000072 ], [ 46.778500922000035, 39.15414798900008 ], [ 46.779032950000044, 39.153852369000049 ], [ 46.779559559000063, 39.153550925000047 ], [ 46.78008064200003, 39.153243720000035 ], [ 46.780596098000046, 39.152930813000069 ], [ 46.78110582100004, 39.152612268000041 ], [ 46.781609711000044, 39.152288147000036 ], [ 46.782107668000037, 39.151958516000036 ], [ 46.782599591000064, 39.151623440000037 ], [ 46.783085383000071, 39.151282986000069 ], [ 46.78356494600007, 39.150937223000028 ], [ 46.784038187000078, 39.150586219000047 ], [ 46.784505008000053, 39.150230044000068 ], [ 46.784965318000047, 39.149868769000079 ], [ 46.785419025000067, 39.149502468000037 ], [ 46.785866039000041, 39.149131212000043 ], [ 46.786306269000079, 39.148755076000043 ], [ 46.786739628000078, 39.14837413500004 ], [ 46.787166031000027, 39.147988465000026 ], [ 46.78758539200004, 39.147598143000039 ], [ 46.787997628000028, 39.14720324700005 ], [ 46.788402655000027, 39.146803856000076 ], [ 46.788800394000077, 39.146400050000068 ], [ 46.789190765000058, 39.145991908000042 ], [ 46.789573691000044, 39.14557951300003 ], [ 46.789949094000065, 39.145162947000074 ], [ 46.790316902000029, 39.144742293000036 ], [ 46.790677038000069, 39.144317636000039 ] ], [ [ 46.770436323000069, 39.140040537000061 ], [ 46.769189555000025, 39.140624175000028 ], [ 46.762372017000075, 39.143815207000046 ], [ 46.76103039700007, 39.144443089000049 ], [ 46.740073530000075, 39.117811508000045 ], [ 46.715400363000072, 39.086424602000079 ], [ 46.716597038000032, 39.085732647000043 ], [ 46.723055389000081, 39.081997755000032 ], [ 46.724242555000046, 39.08131112600006 ], [ 46.748834135000038, 39.112591560000055 ], [ 46.770436323000069, 39.140040537000061 ] ] ] ] } }
]
}
