{
"type": "FeatureCollection",
"name": "OLS_Approach_RWY21",
"crs": { "type": "name", "properties": { "name": "urn:ogc:def:crs:OGC:1.3:CRS84" } },
"features": [
{ "type": "Feature", "properties": { "OBJECTID": 14, "SURFACE_TYPE": "APPROACH", "RUNWAY": "21", "START_DIST_M": 60.0, "INNER_WIDTH_M": 280.0, "DIVERGENCE": 15.0, "SEC1_LEN_M": 3000.0, "SEC1_SLOPE": 2.0, "SEC2_LEN_M": 3600.0, "SEC2_SLOPE": 2.5, "SEC3_LEN_M": 8400.0, "SEC3_SLOPE": 0.0, "TOTAL_LEN_M": 15000.0, "START_ELEV": null, "END_ELEV": null, "Shape_Length": 0.21489424890839987, "Shape_Area": 0.00023670139661607144 }, "geometry": { "type": "MultiPolygon", "coordinates": [ [ [ [ 46.770435148000047, 39.140041086000053, 0.0 ], [ 46.754711721000035, 39.125464688000079, 0.0 ], [ 46.753637603000072, 39.124468622000052, 0.0 ], [ 46.752890132000061, 39.124825371000043, 0.0 ], [ 46.754026395000039, 39.126092023000069, 0.0 ], [ 46.754162680000036, 39.126008486000046, 0.0 ], [ 46.769189503000064, 39.140624125000045, 0.0 ], [ 46.769189558000051, 39.140624177000063, 0.0 ], [ 46.770435148000047, 39.140041086000053, 0.0 ] ] ], [ [ [ 46.752663508000069, 39.126927413000033, 0.0 ], [ 46.751618720000067, 39.125432165000063, 0.0 ], [ 46.750876350000055, 39.12578645800005, 0.0 ], [ 46.751724785000079, 39.127345930000047, 0.0 ], [ 46.76102947000004, 39.144443339000077, 0.0 ], [ 46.76103039700007, 39.144443089000049, 0.0 ], [ 46.762372019000054, 39.143815210000071, 0.0 ], [ 46.762371987000051, 39.143815155000027, 0.0 ], [ 46.752526862000082, 39.127011171000049, 0.0 ], [ 46.752663508000069, 39.126927413000033, 0.0 ] ] ], [ [ [ 46.802330737000034, 39.16958423400007, 0.0 ], [ 46.782790744000067, 39.151489476000052, 0.0 ], [ 46.782599591000064, 39.151623440000037, 0.0 ], [ 46.782107668000037, 39.151958516000036, 0.0 ], [ 46.781609711000044, 39.152288147000036, 0.0 ], [ 46.781357766000042, 39.152450208000062, 0.0 ], [ 46.781355782000048, 39.152451484000039, 0.0 ], [ 46.783461704000047, 39.154498196000077, 0.0 ], [ 46.79387272200006, 39.16771254400004, 0.0 ], [ 46.797622080000053, 39.172471476000055, 0.0 ], [ 46.802330737000034, 39.16958423400007, 0.0 ] ] ], [ [ [ 46.770495307000033, 39.157673394000028, 0.0 ], [ 46.770491830000026, 39.157662205000065, 0.0 ], [ 46.76994473600007, 39.157846267000025, 0.0 ], [ 46.76934110500008, 39.158041518000061, 0.0 ], [ 46.768733988000065, 39.158230106000076, 0.0 ], [ 46.768563794000045, 39.158280816000058, 0.0 ], [ 46.781016974000067, 39.181138704000034, 0.0 ], [ 46.781643196000061, 39.182266924000032, 0.0 ], [ 46.78671289600004, 39.179159475000063, 0.0 ], [ 46.782117099000061, 39.173325182000042, 0.0 ], [ 46.772555093000051, 39.161186359000055, 0.0 ], [ 46.770495307000033, 39.157673394000028, 0.0 ] ] ] ] } },
{ "type": "Feature", "properties": { "OBJECTID": 15, "SURFACE_TYPE": "APPROACH", "RUNWAY": "21", "START_DIST_M": 60.0, "INNER_WIDTH_M": 280.0, "DIVERGENCE": 15.0, "SEC1_LEN_M": 3000.0, "SEC1_SLOPE": 2.0, "SEC2_LEN_M": 3600.0, "SEC2_SLOPE": 2.5, "SEC3_LEN_M": 8400.0, "SEC3_SLOPE": 0.0, "TOTAL_LEN_M": 15000.0, "START_ELEV": null, "END_ELEV": null, "Shape_Length": 0.25349997462740564, "Shape_Area": 0.0029974952159999724 }, "geometry": { "type": "MultiPolygon", "coordinates": [ [ [ [ 46.864774199000067, 39.226972685000078, 0.0 ], [ 46.803313647000039, 39.170494105000046, 0.0 ], [ 46.802330737000034, 39.16958423400007, 0.0 ], [ 46.797622080000053, 39.172471476000055, 0.0 ], [ 46.797622320000073, 39.172471574000042, 0.0 ], [ 46.797622209000053, 39.172471641000072, 0.0 ], [ 46.801123743000062, 39.176916017000053, 0.0 ], [ 46.800563115000045, 39.177260322000052, 0.0 ], [ 46.795684921000031, 39.180256230000055, 0.0 ], [ 46.795673772000043, 39.180263076000074, 0.0 ], [ 46.795671765000066, 39.180264309000052, 0.0 ], [ 46.790232351000043, 39.183603376000065, 0.0 ], [ 46.790219612000044, 39.183611197000062, 0.0 ], [ 46.786713035000048, 39.179159651000077, 0.0 ], [ 46.786905011000044, 39.179041982000058, 0.0 ], [ 46.786904951000054, 39.17904175700005, 0.0 ], [ 46.78671289600004, 39.179159475000063, 0.0 ], [ 46.781643196000061, 39.182266924000032, 0.0 ], [ 46.821305434000067, 39.253639857000053, 0.0 ], [ 46.864774199000067, 39.226972685000078, 0.0 ] ] ] ] } }
]
}
