{
"type": "FeatureCollection",
"name": "Strip",
"crs": { "type": "name", "properties": { "name": "urn:ogc:def:crs:OGC:1.3:CRS84" } },
"features": [
{ "type": "Feature", "properties": { "OBJECTID": 1, "SURFACE_TYPE": "RUNWAY_STRIP", "LENGTH_M": 3240.0, "WIDTH_M": 240.0, "SLOPE_PCT": 0.0, "START_ELEV": null, "END_ELEV": null, "RUNWAY": "03/21", "Shape_Length": 0.074815202017124577, "Shape_Area": 0.00010313518426675831 }, "geometry": { "type": "MultiPolygon", "coordinates": [ [ [ [ 46.73300671700008, 39.099357165000072, 0.0 ], [ 46.733007318000034, 39.099358019000078, 0.0 ], [ 46.733143908000045, 39.099274532000038, 0.0 ], [ 46.73300671700008, 39.099357165000072, 0.0 ] ] ], [ [ [ 46.733007318000034, 39.099358019000078, 0.0 ], [ 46.732325308000043, 39.099774879000051, 0.0 ], [ 46.731643095000038, 39.100191858000073, 0.0 ], [ 46.732833059000029, 39.101511262000031, 0.0 ], [ 46.732137083000055, 39.101936636000062, 0.0 ], [ 46.736948009000059, 39.108443906000048, 0.0 ], [ 46.750876350000055, 39.12578645800005, 0.0 ], [ 46.751618720000067, 39.125432165000063, 0.0 ], [ 46.752663508000069, 39.126927413000033, 0.0 ], [ 46.75402639400005, 39.126092023000069, 0.0 ], [ 46.752890132000061, 39.124825371000043, 0.0 ], [ 46.753637603000072, 39.124468622000052, 0.0 ], [ 46.739884589000042, 39.106607372000042, 0.0 ], [ 46.734683906000043, 39.10038, 0.0 ], [ 46.734013471000026, 39.100789786000064, 0.0 ], [ 46.733007318000034, 39.099358019000078, 0.0 ] ] ] ] } }
]
}
