{
"type": "FeatureCollection",
"name": "Takeoff_Climb_RWY03",
"crs": { "type": "name", "properties": { "name": "urn:ogc:def:crs:OGC:1.3:CRS84" } },
"features": [
{ "type": "Feature", "properties": { "OBJECTID": 5, "SURFACE_TYPE": "TAKEOFF_CLIMB", "RUNWAY": "03", "START_DIST_M": 240.0, "INNER_WIDTH_M": 180.0, "DIVERGENCE": 12.5, "FINAL_WIDTH_M": 1200.0, "DIV_LEN_M": 4080.0, "CONST_LEN_M": 10920.0, "TOTAL_LEN_M": 15000.0, "SLOPE_PCT": 2.0, "START_ELEV": null, "END_ELEV": null, "Shape_Length": 0.16819147138302712, "Shape_Area": 0.00051820159447983215 }, "geometry": { "type": "MultiPolygon", "coordinates": [ [ [ [ 46.648442827000054, 38.982559533000028, 0.0 ], [ 46.647361157000034, 38.981178760000034, 0.0 ], [ 46.63646413500004, 38.987850187000049, 0.0 ], [ 46.637545206000027, 38.989230465000048, 0.0 ], [ 46.637546349000047, 38.989230494000026, 0.0 ], [ 46.638225810000051, 38.988814520000062, 0.0 ], [ 46.648442827000054, 38.982559533000028, 0.0 ] ] ], [ [ [ 46.713183905000051, 39.065083281000057, 0.0 ], [ 46.695568045000073, 39.042652091000036, 0.0 ], [ 46.690127890000042, 39.045980422000071, 0.0 ], [ 46.690125135000073, 39.045982107000043, 0.0 ], [ 46.68467417800008, 39.049315690000071, 0.0 ], [ 46.684661553000069, 39.049323412000035, 0.0 ], [ 46.702273992000073, 39.071754612000063, 0.0 ], [ 46.704375891000041, 39.073806348000062, 0.0 ], [ 46.704375980000066, 39.073805397000058, 0.0 ], [ 46.705340213000056, 39.073203249000073, 0.0 ], [ 46.70559756800003, 39.073046874000056, 0.0 ], [ 46.706117887000062, 39.07273981700007, 0.0 ], [ 46.706643710000037, 39.072438514000055, 0.0 ], [ 46.707174933000033, 39.072143023000081, 0.0 ], [ 46.70771145100008, 39.07185340500007, 0.0 ], [ 46.708253154000033, 39.07156972000007, 0.0 ], [ 46.708799938000027, 39.071292018000065, 0.0 ], [ 46.709351691000052, 39.07102036100008, 0.0 ], [ 46.709908304000066, 39.070754799000042, 0.0 ], [ 46.71046966800003, 39.070495385000072, 0.0 ], [ 46.711035668000079, 39.070242173000054, 0.0 ], [ 46.711606195000059, 39.069995211000048, 0.0 ], [ 46.712181132000069, 39.069754549000038, 0.0 ], [ 46.712760366000055, 39.069520235000027, 0.0 ], [ 46.713343782000038, 39.069292317000077, 0.0 ], [ 46.713931264000053, 39.069070838000073, 0.0 ], [ 46.714522693000049, 39.068855843000051, 0.0 ], [ 46.71511795400005, 39.068647375000069, 0.0 ], [ 46.71523957800008, 39.068606377000037, 0.0 ], [ 46.713183905000051, 39.065083281000057, 0.0 ] ] ], [ [ [ 46.733143908000045, 39.099274532000038, 0.0 ], [ 46.723055389000081, 39.081997755000032, 0.0 ], [ 46.716597038000032, 39.085732647000043, 0.0 ], [ 46.731506697000043, 39.100275227000054, 0.0 ], [ 46.733143908000045, 39.099274532000038, 0.0 ] ] ] ] } }
]
}
